MUNI CODE,MUNI NAME,COUNTY,ADDRESS 1,ADDRESS 2,CITY,STATE,ZIP,PHONE,FAX,MAYOR NAME,TERM START,TERM END,FORM,TERM LEGNTH,EMAIL,SOCIAL MEDIA HANDLE,Municipal Contact List
1330,Aberdeen Township,Monmouth,One Aberdeen Square,,Aberdeen,NJ,07747-2300,(732) 583-4200,,Fred Tagliarini,,12/31/2025,COUNCIL-MANAGER,4,fred.tagliarini@aberdeennj.org,,
0101,Absecon City,Atlantic,Absecon Municipal Complex,500 Mill Road,Absecon,NJ,08201,(609) 641-0663,(609) 645-5098,Kimberly Horton,,12/31/2024,MAYOR-COUNCIL,3,khorton@abseconnj.org,,
1001,Alexandria Township,Hunterdon,782 Frenchtown Road,,Milford,NJ,08848,(908) 996-7071,,Gabe Plumer,,12/31/2022,TOWNSHIP,3,clerk@alexandrianj.gov,,
2101,Allamuchy Township,Warren,Post Office Box A,,Allamuchy,NJ,07820,(908) 852-5132,,Rosemary Tuohy,,12/31/2024,FAULKNER ACT,3,mayor@allamuchynj.org,,
0201,Allendale Borough,Bergen,500 West Crescent Avenue,,Allendale,NJ,07401,(201) 818-4400,,Ari Bernstein,,12/31/2022,,,aribernstein@allendalenj.gov,,
1302,Allenhurst Borough,Monmouth,125 Corlies Avenue,,Allenhurst,NJ,07711-1049,(732) 531-2757,,David J. Mclaughlin,,5/1/2024,Non Partisan,,llgwiz@aol.com,,
1303,Allentown Borough,Monmouth,8 North Main Street,Post Office Box 487,Allentown,NJ,08501-1607,(609) 259-3151,,Thomas C. Fritts,,12/31/2023,,,TFritts@allentownboronj.com,,
1701,Alloway Township,Salem,49 South Greenwich Street,Post Office Box 425,Alloway,NJ,08001-0425,(856) 935-4080,,P. Ed McCkelvey,,12/31/2024,,,pemckelvey@gmail.com,,
2102,Alpha Borough,Warren,1001 East Boulevard,,Alpha,NJ,08865,(908) 454-0088,,Craig S. Dunwell,,12/31/2023,Mayor/Council,"4, 3 ",mayordunwell@alphaboronj.org,,
0202,Alpine Borough,Bergen,100 Church Street,Post Office Box 1095,Alpine,NJ,07620-1095,(201) 784-2900,(201) 784-1407,Paul Tomasko,,12/31/2022,,,swehmann@alpinenj.org,,
1901,Andover Borough,Sussex,137 Main Street,,Andover,NJ,07821,(973) 786-6688,,John M. Morgan,,12/31/2023,,,j.morgan@andoverboroughnj.org,,
1902,Andover Township,Sussex,134 Newton-Sparta Road,,Newton,NJ,07860-2746,(973) 383-4280,,Michael Lensak,,12/31/2023,,,mlensak@andovertwp.org,,
1304,Asbury Park City,Monmouth,One Municipal Plaza,,Asbury Park,NJ,07712,(732) 775-2100,,John B. Moor,,12/31/2022,,,john.moor@cityofasburypark.com,,
0102,Atlantic City,Atlantic,City Hall,1301 Bacharach Boulevard,Atlantic City,NJ,08401,(609) 347-5300,(609) 437-5638,"Marty Small, Sr.",,12/31/2025,,,msmall@acnj.gov,,
1305,Atlantic Highlands Borough,Monmouth,100 First Avenue,,Atlantic Highlands,NJ,07716-2913,(732) 291-1444,(732) 291-9725,Loretta Gluckstein,,12/31/2023,Mayor/Council,"4, 3",mayor@ahnj.com,,
0401,Audubon Borough,Camden,Municipal Complex,606 West Nicholson Road,Audubon,NJ,08106,(856) 547-0711,,Rob Jakubowski,,5/10/2022,,,r.jakubowski@audubonnj.com,,
0402,Audubon Park Borough,Camden,20 Road C,,Audubon Park,NJ,08106,(856) 547-5236,,Lawrence E. Pennock,,12/31/2022,,,mayor@audubonparknj.org,,
0501,Avalon Borough,Cape May,3100 Dune Drive,,Avalon,NJ,08202-1706,(609) 967-5924,,Martin L Pagliughi,,6/30/2023,Mayor/Council,4 years each,mpagliughi@avalonboro.org,,
1306,Avon-By-The-Sea Borough,Monmouth,301 Main Street,,Avon,NJ,07717-1013,(732) 502-4510,(732) 774-0605,Edward R. Bonanno,,12/31/2023,Commission,4,ebonanno@avonbytheseanj.com,,
1502,Barnegat Light Borough,Ocean,Post Office Box 576,,Barnegat Light,NJ,08006,(609) 494-9196,(609) 494-4827,Kirk O Larson,,12/31/2022,,,mayor@barnegatlight.org,,
1501,Barnegat Township,Ocean,900 West Bay Avenue,,Barnegat,NJ,08005-1298,(609) 698-0080,,Alfonso Cirulli ,,12/31/2022,,,acirulli@barnegat.net,,
0403,Barrington Borough,Camden,229 Trenton Avenue,,Barrington,NJ,08007,(856) 547-8585,,Patti Harris,,12/31/2023,Mayor/Council,4yr/3yr,pharris@barringtonboro.com,,
0301,Bass River Township,Burlington,Post Office Box 307,,New Gretna,NJ,08224,(609) 296-3337,,Deborah Buzby-Cope,,5/31/2024,Non Partisan,,bassriverclerk@comcast.net,,
1503,Bay Head Borough,Ocean,81 Bridge Avenue (Rear),PO Box 248,Bay Head,NJ,08742,(732) 892-0574,(732) 899-6494,William W. Curtis,,12/31/2023,,,bcurtis@bayheadnj.us,,
0901,Bayonne City,Hudson,City Hall,630 Avenue C,Bayonne,NJ,07002-3878,(201) 858-6000,,James Davis,,6/30/2022,,,mayors.office@baynj.org,,
1504,Beach Haven Borough,Ocean,300 Engleside Avenue,,Beach Haven,NJ,08008,(609) 492-0111,,Colleen Lambert,,12/31/2022,,,mayordavis@beachhaven-nj.gov,,
1505,Beachwood Borough,Ocean,1600 Pinewald Road,,Beachwood,NJ,08722,(732) 286-6000,,"Ronald F. Roma, Jr.",,12/31/2023,,, mayorroma@beachwoodusa.com,,
1801,Bedminster Township,Somerset,One Miller Lane,,Bedminster,NJ,07921-2587,(908) 212-7000,,Lawrence F. Jacobs,,12/31/2022,Township,1 year,mayor@bedminster.us,,
0701,Belleville Township,Essex,152 Washington Avenue,,Belleville,NJ,07109,(973) 450-3300,,Michael Melham,,6/30/2022,,,michael@melhamforbelleville.com,,
0404,Bellmawr Borough,Camden,21 East Browning Road,Post Office 368,Bellmawr,NJ,08099-0368,(856) 933-1313,(856) 931-2368,"Charles J. Sauter, III",,12/31/2022,,,Mayor-sauter@bellmawr.com,,
1307,Belmar Borough,Monmouth,601 Main Street,Post Office Box A,Belmar,NJ,07719,(732) 681-3700,,Mark Walsifer,,12/31/2022,,,mwalsifer@belmar.com,,
2103,Belvidere Township,Warren,691 Water Street,,Belvidere,NJ,07823-1321,(908) 475-5331,,Joseph Kennedy,,12/31/2023,,4 year,clerk@belvidere-nj.org,,
0203,Bergenfield Borough,Bergen,198 North Washington Avenue,,Bergenfield,NJ,07621,(201) 387-4055,(201) 385-7689,Arvin Amatorio,,12/31/2023,,,mayor@bergenfield.com,,
2001,Berkeley Heights Township,Union,29 Park Avenue,,Berkeley Heights,NJ,07922,(908) 464-2700,(908) 464-8150,Angie D. Devanney,,12/31/2022,,,adevanney@bhtwp.com,,
1506,Berkeley Township,Ocean,627 Pinewald Keswick Road,P O Box B,Bayville,NJ,08721-2778,(732) 244-7400,(732) 341-8968,"Carmen F. Amaot, Jr.",,12/31/2023,,,mayor@twp.berkeley.nj.us,,
0405,Berlin Borough,Camden,59 South White Horse Pike,,Berlin,NJ,08009,(856) 767-7777,,Rick Miller,,12/31/2023,,,mayorjbilella@berlinnj.org,,
0406,Berlin Township,Camden,135 Route 73 South,,West Berlin,NJ,08091-3754,(856) 767-1854,,Phyllis A. Magazzu,,12/31/2022,,,mayormagazzu@berlintwp.com,,
1802,Bernards Township,Somerset,One Collyer Lane,,Basking Ridge,NJ,07920-1442,(908) 204-3001,,James Baldassare Jr.,,12/31/2023,,,jbaldassare@bernards.org,,
1803,Bernardsville Borough,Somerset,Borough of Bernardsville,Post Office Box 158,Bernardsville,NJ,07924,(908) 766-3000,(908) 766-2401,Mary Jane Canose,,12/31/2022,,,mayor@bernardsvilleboro.org,,
1002,Bethlehem Township,Hunterdon,405 Mine Road,,Asbury,NJ,08802,(908) 735-4107,,Paul Muir,,12/31/2022,,,pmuir@bethlehemnj.org,,
0302,Beverly City,Burlington,446 Broad Street,,Beverly,NJ,08010-1546,(609) 387-1881,(609) 387-3558,Randy H Miller,,12/31/2023,,,rmiller@thecityofbeverly.com,,
2104,Blairstown Township,Warren,12 Mohican Road,Post Office Box 370,Blairstown,NJ,07825-9624,(908) 362-6663,,Rob Moorhead,,12/31/2024,,,rmoorhead@blairstowntwp-nj.com,,
0702,Bloomfield Township,Essex,Law Enforcement Building,One Municipal Plaza,Bloomfield,NJ,07003-3470,(973) 680-4077,(973) 680-4040,Michael J.  Venezia,,12/31/2022,,,mvenezia@bloomfieldtwpnj.com,,
1601,Bloomingdale Borough,Passaic,101 Hamburg Turnpike,,Bloomingdale,NJ,07403-1236,(973) 838-0778,(973) 838-5115,Jonathan Dunleavy,,12/31/2022,,,jdunleavy@bloomingdalenj.net,,
1003,Bloomsbury Borough,Hunterdon,91 Brunswick Avenue,,Bloomsbury,NJ,08804,(908) 479-4200,,Vicky Papics,,12/31/2023,Mayor Council,4 and 3,blmclerk@ptd.net,,
0204,Bogota Borough,Bergen,375 Larch Avenue,,Bogota,NJ,07603-1099,(201) 342-1736,,Christopher Kelemen,,12/31/2023,,4 year,mayorkelemen@bogotaonline.org,,
1401,Boonton Town,Morris,100 Washington Street,,Boonton,NJ,07005,(973) 402-9410,,Richard J. Corcoran Iii,,12/31/2023,,,mayor@boonton.org,,
1402,Boonton Township,Morris,155 Powerville Road,,Boonton Township,NJ,07005,(973) 402-4012,,Paul Allieri,,12/31/2022,,,dcabana@boontontownship.com,,
0303,Bordentown City,Burlington,City Hall,324 Farnworth Avenue,Bordentown,NJ,08505,(609) 298-0604,,Jennifer L. Sciortino,,5/13/2025,,,jsciortino@cityofbordentown.com,,
0304,Bordentown Township,Burlington,One Municipal Drive,,Bordentown,NJ,08505,(609) 298-2800,,Stephen Benowitz,,12/31/2022,,,s.benowitz@bordentowntwp.org,,
1804,Bound Brook Borough,Somerset,230 Hamilton Street,,Bound Brook,NJ,08805-2017,(732) 356-0833,,Robert P. Fazen,,12/31/2023,,,rfazen@boundbrook-nj.org,,
1308,Bradley Beach Borough,Monmouth,701 Main Street,,Bradley Beach,NJ,07720,(732) 776-2999,,Larry Fox,,12/31/2024,,,lfox@bradleybeachnj.gov,,
1805,Branchburg Township,Somerset,1077 Route 202,,Branchburg,NJ,08876-3924,(908) 526-1300,,James Schworn,,12/31/2022,,,maggie.schmitt@branchburg.nj.us,,
1903,Branchville Borough,Sussex,Post Office Box 840,,Branchville,NJ,07826-0840,(973) 948-4626,,"Anthony Frato, Sr.",,12/31/2023,,,branchvilleclerk@yahoo.com,,
1507,Brick Township,Ocean,401 Chambers Bridge Road,,Brick,NJ,08723-2807,(732) 262-1000,,John Ducey,,12/31/2025,,,mayor@twp.brick.nj.us,,
0601,Bridgeton City,Cumberland,181 East Commerce Street,,Bridgeton,NJ,08302-2646,(856) 455-3230,(856) 455-7421,Albert B. Kelly,,12/31/2022,,,mayor@cityofbridgeton.com,,
1806,Bridgewater Township,Somerset,100 Commons Way,,Bridgewater,NJ,08807-2801,(908) 725-6300,(908) 707-1235,Matthew C. Moench,,12/31/2023,,,mayor@bridgewaternj.gov,,
1309,Brielle Borough,Monmouth,601 Union Lane,Post Office Box 445,Brielle,NJ,08730-1448,(732) 528-6600,,Thomas B Nicol,,12/31/2023,,,townhall@brielleboro.com,,
0103,Brigantine City,Atlantic,1417 West Brigantine Avenue,,Brigantine,NJ,08203-2147,(609) 266-7600,,Andrew Simpson,,12/31/2022,,,asimpson@brigantinebeachnj.com,,
0407,Brooklawn Borough,Camden,301 Christiana Street,,Brooklawn,NJ,08030,(856) 456-0750,,Theresa Branella,,12/31/2022,,,tbranella@brooklawn-nj.com,Facebook: Borough of Brooklawn,
0104,Buena Borough,Atlantic,616 Central Avenue,,Minotola,NJ,08341,(856) 697-9393,,David Zappariello,,12/31/2024,,,mayordave@buenaboro.org,,
0105,Buena Vista Township,Atlantic,890 Harding Highway,Post Office Box 605,Buena,NJ,08310,(856) 697-2100,(856) 697-8353,William Ruggieri,,12/31/2022,,,wruggieri@buenavistanj.com,,
0305,Burlington City,Burlington,525 High Street,City Hall,Burlington,NJ,08016-4503,(609) 386-0200,(609) 386-0214,Barry Conaway,,12/31/2023,,,bconaway@burlingtonnj.us,,
0306,Burlington Township,Burlington,851 Old York Road,,Burlington Township,NJ,08016,(609) 239-5834,,E. L. Pete Green,,12/31/2022,,,lferrara@twp.burlington.nj.us,,
1403,Butler Borough,Morris,One Ace Road,,Butler,NJ,07405-1348,(973) 838-7200,(973) 838-3762,Robert W Alviene,,12/31/2022,,,ralviene@butlerborough.com,,
1904,Byram Township,Sussex,10 Mansfield Drive,,Stanhope,NJ,07874,(973) 347-2500,,Alexander Rubenstein,,12/31/2022,,,arubenstein@byramtwp.org,,
0703,Caldwell Borough,Essex,One Provost Square,,Caldwell,NJ,07006-5103,(973) 403-4634,(973) 403-1355,John Kelley,,12/31/2022,,,jkelley@caldwell-nj.com,,
1004,Califon Borough,Hunterdon,Post Office Box 368,,Califon,NJ,07830,(908) 832-7150,,Charles Daniel,,12/31/2022,,,cdaniel@califonboro.net,,
0408,Camden City,Camden,City Hall,520 Market Street,Camden,NJ,08101-5120,(856) 757-7200,(856) 757-7389,Victor Carstarphen,,12/31/2022,,,Mayor@ci.camden.nj.us,,
0502,Cape May City,Cape May,643 Washington Street,,Cape May,NJ,08204-2397,(609) 884-9544,,Zachary Mullock,,12/31/2024,,,zmullock@capemaycity.com,,
0503,Cape May Point Borough,Cape May,215 Lighthouse Avenue,Post Office Box 490,Cape May Point,NJ,08212-0504,(609) 884-8468,,"Robert J. Moffatt, VMD",,12/31/2025,,,rmoffatt@capemaypoint.org,,
0205,Carlstadt Borough,Bergen,500 Madison Street,,Carlstadt,NJ,07072,(201) 939-2850,,Robert Zimmermann,,12/31/2023,,,robert.zimmermann@verizon.net,,
1702,Carneys Point Township,Salem,303 Harding Highway,,Carneys Point,NJ,08069,(856) 299-0070,,Kenneth H. Brown,,12/31/2022,,,khbrown@verizon.net ,,
1201,Carteret Borough,Middlesex,61 Cooke Avenue,,Carteret,NJ,07008-3046,(732) 541-3835,(732) 541-1192,Daniel J Reiman,,12/31/2022,,,mayor@carteret.net,@mycarteret,
0704,Cedar Grove Township,Essex,525 Pompton Avenue,,Cedar Grove,NJ,07009-1796,(973) 239-1410,. ,Peter H. Tanella,,6/30/2023,,,tanella@cedargrovenj.org,,
1404,Chatham Borough,Morris,54 Fairmount Avenue,,Chatham,NJ,07928,(973) 635-0674,,Thaddeus J. Kobylarz,,12/31/2023,,,tkobylarz@chathamborough.org,,
1405,Chatham Township,Morris,58 Meyersville Road,,Chatham,NJ,07928,(973) 635-4600,,Ashley Felice,,12/31/2023,,,afelice@chathamtownship.org,,
0409,Cherry Hill Township,Camden,820 Mercer Street,,Cherry Hill,NJ,08002-2638,(856) 488-7878,,Susan Shin Angulo,,12/31/2023,,,SSAngulo@chtownship.com,,
0410,Chesilhurst Borough,Camden,201 Grant Avenue,,Chesilhurst,NJ,08089,(856) 767-4153,(856) 753-1696,Jamila Odom-Bremmer,,12/31/2023,,,MayorJamilaBremmer@gmail.com,,
1406,Chester Borough,Morris,50 North Road,,Chester,NJ,07930,(908) 879-3600,(908) 879-0122,Janet G. Hoven,,12/31/2022,,,JHoven@ChesterBorough.org,,
1407,Chester Township,Morris,One Parker Road,,Chester,NJ,07930,(908) 879-5100,(908) 879-8281,Marcia Asdal,,12/31/2022,,,masdal@chestertownship.org,,
0307,Chesterfield Township,Burlington,300 Bordentown-,Chesterfield Road,Chesterfield,NJ,08515,(609) 298-2311,,Lido Panfili,,12/31/2022,,,jliedtka@chesterfieldtwp.com,,
0308,Cinnaminson Township,Burlington,1621 Riverton Road,Post Office Box 2100,Cinnaminson,NJ,08077,(856) 829-6000,,Stephanie Kravil,,12/31/2022,,,skravil@cinnaminsonnj.org,,
2002,Clark Township,Union,430 Westfield Avenue,,Clark,NJ,07066-1704,(732) 388-3600,(732) 388-1241,Salvatore F. Bonaccorso,,12/31/2024,,,mayor@ourclark.com,,
0801,Clayton Borough,Gloucester,125 North Delsea Drive,,Clayton,NJ,08312-1698,(856) 881-2882,(856) 881-0153,Thomas Bianco,,12/31/2023,,,tbianco@claytonnj.com,,
0411,Clementon Borough,Camden,101 Gibbsboro Road,,Clementon,NJ,08021,(856) 783-0284,,Thomas J Weaver,,12/31/2023,,,t.weaver@clementon-nj.com,,
0206,Cliffside Park Borough,Bergen,525 Palisade Avenue,,Cliffside Park,NJ,07010,(201) 945-3456,,Thomas.Calabrese,,12/31/2023,,,Tcalabrese@cliffsideparknj.gov,,
1602,Clifton City,Passaic,900 Clifton Avenue,,Clifton,NJ,07013,(973) 470-5757,,James Anzaldi,,11/30/2022,,,janzaldi@cliftonnj.org,,
1005,Clinton Town,Hunterdon,43 Leigh Street,Post Office Box 5194,Clinton,NJ,08809,(908) 735-8616,,Janice Kovach,,12/31/2023,,,jkovach@clintonnj.gov,Twitter account - @clintonmayor ,
1006,Clinton Township,Hunterdon,1225 Route 31 South,Suite 411,Lebanon,NJ,08833-0000,(908) 735-8800,,Brain Mullay,,12/31/2023,,,bmullay@clintontwpnj.com,,
0207,Closter Borough,Bergen,295 Closter Dock Road,,Closter,NJ,07624-2645,(201) 784-0600,(201) 784-9727,"John C. Glidden, Jr.",,12/31/2022,,,jglidden@closternj.us,,
0412,Collingswood Borough,Camden,678 Haddon Avenue,,Collingswood,NJ,08108,(856) 854-0720,(856) 854-0632,"M. James Maley, Jr.",,5/13/2025,,,jmaley@collingswood.com,,
1310,Colts Neck Township,Monmouth,124 Cedar Drive,,Colts Neck,NJ,07722-1673,(732) 462-5470,(732) 431-3173,J.P. Bartolomeo,,12/31/2022,,,jbartolomeo@coltsneck.org,,
0602,Commercial Township,Cumberland,1768 Main Street,,Port Norris,NJ,08349-3348,(856) 785-3100,,Mike Vizzard,,12/31/2022,,,mike@gmwhite.net; hnichols@commercialtwp.com,,
0106,Corbin City,Atlantic,316 Route 50,,Corbin City,NJ,08270,(609) 628-2673,(609) 628-3017,Robert Schulte,,12/31/2022,,,mayor@corbincitynj.com,,
1202,Cranbury Township,Middlesex,23-A North Main Street,,Cranbury,NJ,08512-3257,(609) 395-0900,,"Barbara Rogers, PhD ",,12/31/2022,,,brogers@cranbury-nj.com,,
2003,Cranford Township,Union,8 Springfield Avenue,,Cranford,NJ,07016-0000,(908) 709-7200,,Kathleen Miller Prunty,,12/31/2022,,,mayor@cranfordnj.org,https://m.facebook.com/Giblin4Cranford/,
0208,Cresskill Borough,Bergen,67 Union Avenue,,Cresskill,NJ,07626,(201) 569-5400,(201) 569-3714,Benedict Romeo,,12/31/2023,,,bnasuto.boro@cresskillboro.org,,
1311,Deal Borough,Monmouth,Post Office Box 56,,Deal,NJ,07723-0056,(732) 531-1454,,Samuel Cohen,,5/17/2024,Non Partisan,,Mayor@dealborough.com,,
0603,Deerfield Township,Cumberland,Post Office Box 350,,Rosenhayn,NJ,08352,(856) 455-3200,(856) 455-0025,Michael A. Terrigno,,12/31/2022,,,mterrigno@deerfieldtownship.org,,
0309,Delanco Township,Burlington,770 Coopertown Road,,Delanco,NJ,08075,(856) 461-0561,,Michael L. Templeton,,12/31/2022,,,mtempleton@delancotownship.com,,
1007,Delaware Township,Hunterdon,Post Office Box 500,,Sergeantsville,NJ,08557,(609) 397-3240,,Joseph Vocke,,12/31/2022,,,Jvocke@delawaretwpnj.org,,
0310,Delran Township,Burlington,900 Chester Avenue,,Delran,NJ,08075,(856) 461-7734,(856) 764-1494,Gary Catrambone,,12/31/2024,,,ameiluta@delrantownship.org,,
0209,Demarest Borough,Bergen,118 Serpentine Road,,Demarest,NJ,07627,(201) 768-0167,,Melinda Iannuzzi,,12/31/2022,,,m.iannuzzi@demarestnj.org,,
0504,Dennis Township,Cape May,571 Petersburg Road,Post Office Box 204,Dennisville,NJ,08214-0204,(609) 861-9700,(609) 861-9719,Zeth A. Matalucci,,12/31/2022,,,matalucci@dennistwp.org,,
1408,Denville Township,Morris,One Saint Mary's Place,,Denville,NJ,07834-2122,(973) 625-8300,,Thomas W. Andes,,12/31/2023,,,mayor@denvillenj.org,,
0802,Deptford Township,Gloucester,1011 Cooper Street,,Deptford,NJ,08096,(856) 845-5300,,Paul Medany,,12/31/2023,,,mayor@deptford-nj.org,,
1409,Dover Town,Morris,37 North Sussex Street,,Dover,NJ,07801-0798,(973) 366-2200,(973) 328-6604,Carolyn Blackman,,12/31/2023,,,cblackman@dover.nj.us,,
0604,Downe Township,Cumberland,288 Main Street,,Newport,NJ,08345-2131,(856) 447-3100,,Robert Campbell,,12/31/2022,,,rgc4downe@comcast.net,,
0210,Dumont Borough,Bergen,50 Washington Avenue,,Dumont,NJ,07628,(201) 387-5022,,Andrew Labruno,,12/31/2023,,,alabruno@dumontboro.org,,
1203,Dunellen Borough,Middlesex,355 North Avenue,,Dunellen,NJ,08812-1203,(732) 968-3033,(732) 968-8605,Jason F. Cilento,,12/31/2023,,,jcilento@dunellen-nj.gov,,
1509,Eagleswood Township,Ocean,Post Office Box 409,,West Creek,NJ,08092,(609) 296-3040,,Michael J. Pasternak ,,12/31/2022,,,mpasternak_eagleswood@comcast.net,,
1008,East Amwell Township,Hunterdon,1070 Route 202/31,,Ringoes,NJ,08551,(908) 782-8536,,Tara Ramsey,,12/31/2024,,,tramsey@eastamwelltownship.com,,
1204,East Brunswick Township,Middlesex,One Jean Walling Civic Center,Post Office Box 1081,East Brunswick,NJ,08816-1081,(732) 390-6810,(732) 390-6818,Brad J Cohen,,12/31/2024,,,mayor@eastbrunswick.org,,
0803,East Greenwich Township,Gloucester,159 Democrat Road,,Mickleton,NJ,08056-1232,(856) 423-0654,,Dale L. Archer,,12/31/2024,,,darcher@eastgreenwichnj.com,,
1410,East Hanover Township,Morris,411 Ridgedale Avenue,,East Hanover,NJ,07936,(973) 428-3000,,Joseph Pannullo,,12/31/2023,,,township.clerk@easthanovertownship.com,,
0902,East Newark Borough,Hudson,34 Sherman Avenue,,East Newark,NJ,07029-2718,(973) 481-2902,,Dina M. Grilo,,12/31/2023,,,dgrilo@boroughofeastnewark.com,,
0705,East Orange City,Essex,44 City Hall Plaza,,East Orange,NJ,07019,(973) 266-5151,(973) 266-5135,Ted R. Green,,12/31/2022,,,constituentservices@eastorange-nj.gov,,
0212,East Rutherford Borough,Bergen,One Everett Place,,East Rutherford,NJ,07073-1701,(201) 933-3444,,Jeffrey J. Lahullier,,12/31/2023,,,mayorlahullier@eastrutherfordnj.net,,
1101,East Windsor Township,Mercer,16 Lanning Boulevard,,East Windsor,NJ,08520,(609) 443-4000,(609) 443-8303,Janice S Mironov,,12/31/2023,,,mayor@east-windsor.nj.us,,
0311,Eastampton Township,Burlington,12 Manor House Court,,Eastampton,NJ,08060-4379,(609) 267-5723,,Anthony Zeno,,12/31/2022,,,azeno@eastampton.com,,
1312,Eatontown Borough,Monmouth,47 Broad Street,,Eatontown,NJ,07724-1571,(732) 389-7623,,"Anthony Talerico, Jr.",,12/31/2022,,,atalerico@eatontownnj.com,,
0213,Edgewater Borough,Bergen,916 River Road,,Edgewater,NJ,07020,(201) 943-1700,,Michael Mcpartland,,12/31/2023,,,mayorMcpartland@edgewaternj.org,,
0312,Edgewater Park Township,Burlington,400 Delanco Road,,Edgewater Park,NJ,08010,(609) 877-2050,,Lauren Difilippo,,12/31/2023,,,ldifilippo@edgewaterpark-nj.com,,
1205,Edison Township,Middlesex,100 Municipal Boulevard,,Edison,NJ,08817,(732) 248-7200,,Samip Joshi,,12/31/2025,,,MayorJoshi@edisonnj.org ,,
0107,Egg Harbor City,Atlantic,500 London Avenue,,Egg Harbor City,NJ,08215-1599,(609) 965-4683,(609) 965-6698,Lisa Jiampetti,,12/31/2024,,, jiams208@comcast.net,,
0108,Egg Harbor Township,Atlantic,3515 Bargaintown Road,,Egg Harbor Township,NJ,08234-8321,(609) 926-4088,,Paul W. Hodson,,12/31/2022,,,phodson@ehtgov.org,,
2004,Elizabeth City,Union,50 Winfield Scott Plaza,,Elizabeth,NJ,07201,(908) 820-4000,(908) 352-2275,J. Christian Bollwage,,12/31/2024,,,cityclerk@elizabethnj.org,,
0804,Elk Township,Gloucester,667 Whig Lane Road,,Monroeville,NJ,08343-2826,(856) 881-6525,(856) 881-5750,Carolyn D. K. Sammons,,12/31/2023,,,csammons@elktownshipnj.gov,,
1703,Elmer Borough,Salem,120 South Main Street,Post Office Box 882,Elmer,NJ,08318-0882,(856) 358-4010,,Joseph P. Stemberger,,12/31/2023,,,mayorstem@ymail.com,,
0211,Elmwood Park Borough,Bergen,182 Market Street,,Elmwood Park,NJ,07407-1407,(201) 796-1457,,Robert Colletti,,12/31/2023,,4 year,RColleti@elmwoodparknj.us,,
1704,Elsinboro Township,Salem,619 Salem-Fort Elfsborg Road,,Salem,NJ,08079,(856) 935-2200,,Sean Elwell,,12/31/2022,,,Sean@seanelwell.com ,,
0214,Emerson Borough,Bergen,Municipal Place,,Emerson,NJ,07630-1891,(201) 262-6086,,Danielle DiPaola,,12/31/2022,,,Mayor@emersonnj.org,,
0215,Englewood City,Bergen,2-10 North Van Brunt Street,,Englewood,NJ,07631,(201) 871-6636,(201) 567-3678,Michael Wildes,,12/31/2024,,,MayorWildes@cityofenglewood.org ,,
0216,Englewood Cliffs Borough,Bergen,10 Kahn Terrace,,Englewood Cliffs,NJ,07632-2911,(201) 569-5252,,Mario M Kranjac,,12/31/2023,,,mkranjac@englewoodcliffsnj.org,,
1313,Englishtown Borough,Monmouth,15 Main Street,,Englishtown,NJ,07726,(732) 446-9235,(732) 446-4979,Thomas Reynolds,,12/31/2023,,,clerk@englishtownnj.com,,
0706,Essex Fells Borough,Essex,255 Roseland Avenue,,Essex Fells,NJ,07021-1312,(973) 226-3400,(973) 228-4439,"Edward A,. Davis",,12/31/2025,,,Mayor@essexfellsboro.com,,
0109,Estell Manor City,Atlantic,Post Office Box 102,,Estell Manor,NJ,08319,(609) 476-2692,,Elizabeth Owen,,12/31/2025,,,eowen@estellmanor.org,,
0313,Evesham Township,Burlington,984 Tuckerton Road,,Marlton,NJ,08053-2652,(856) 983-2900,,Jaclyn Veasy,,12/31/2023,,, veasyj@evesham-nj.gov,,
1102,Ewing Township,Mercer,2 Jake Garzio Drive,,Ewing,NJ,08628,(609) 883-2900,,Bert Steinmann,,12/31/2022,,,bsteinmann@ewingnj.org,,
1314,Fair Haven Borough,Monmouth,748 River Road,,Fair Haven,NJ,07704,(732) 747-0241,(732) 747-6962,Joshua Halpern,,12/31/2022,,,jhalpern@fhboro.net,,
0217,Fair Lawn Borough,Bergen,8-01 Fair Lawn Avenue,P.O. Box 376,Fair Lawn,NJ,07410,(201) 794-5340,(201) 475-1581,Kurt Peluso,,12/31/2023,,,mayor@fairlawn.org; kpeluso@fairlawn.org,,
0707,Fairfield Township,Essex,230 Fairfield Road,,Fairfield,NJ,07004-2425,(973) 882-2704,(973) 882-0365,James Gasparini,,12/31/2024,,, jgasparini@fairfieldnj.org,,
0605,Fairfield Township,Cumberland,Post Office Box 240,,Fairton,NJ,08320,(856) 451-9284,,Mitch Rhodus,,12/31/2025,,,Mitch.Rhodus@fairfieldtownshipnj.org,,
0218,Fairview Borough,Bergen,59 Anderson Avenue,,Fairview,NJ,07022,(201) 943-3300,,"Vincent Bellucci, Jr.",,12/31/2023,,,vbellucci@fairviewborough.com,,
2005,Fanwood Borough,Union,75 North Martine Avenue,,Fanwood,NJ,07023,(908) 322-8236,(908) 322-7178,Colleen Mahr,,12/31/2023,Mayor/Council,4 year & 3 Year,mayor@fanwoodnj.org,,
1807,Far Hills Borough,Somerset,Post Office Box 477,,Far Hills,NJ,07931,(908) 234-0611,,Paul J Vallone,,12/31/2022,,,pvallone@farhillsnj.org,,
1315,Farmingdale Borough,Monmouth,11 Asbury Avenue,,Farmingdale,NJ,07727-1202,(732) 938-4077,(732) 938-2023,James A. Daly,,12/31/2023,,,jimdaly@farmingdaleborough.org,,
0314,Fieldsboro Borough,Burlington,204 Washington Street,,Fieldsboro,NJ,08505-1100,(609) 298-6344,,David R. Hansell,,12/31/2025,,,mayor.fieldsboro@gmail.com,,
1009,Flemington Borough,Hunterdon,38 Park Avenue,,Flemington,NJ,08822-1321,(908) 782-8840,,Betsy Driver,,12/31/2022,,,bdriver@historicflemington.com,,
0315,Florence Township,Burlington,711 Broad Street,,Florence,NJ,08518-2310,(609) 499-2525,,Craig H. Wilkie,,12/31/2023,,4 year,mayor@florence-nj.gov,,
1411,Florham Park Borough,Morris,111 Ridgedale Avenue,,Florham Park,NJ,07932-1799,(973) 410-5300,,Mark Taylor,,12/31/2023,,,mtaylor@fpboro.net,,
0110,Folsom Borough,Atlantic,1700 Twelfth Street,,Folsom,NJ,08037-9141,(609) 561-3178,,Greg Schenker,,12/31/2023,,,gschenker@folsomborough.com,,
0219,Fort Lee Borough,Bergen,309 Main Street,,Fort Lee,NJ,07024-4705,(201) 592-3546,,Mark J Sokolich,,12/31/2023,Mayor/Council,4 yr Mayor/3 yr Council,mayor@fortleenj.org,,
1905,Frankford Township,Sussex,151 U.S. Highway 206,,Augusta,NJ,07822,(973) 948-5566,,"Emery ""Sam"" Castimore",,12/31/2022,,1 year,clerk@frankfordtwp-nj.com,,
1906,Franklin Borough,Sussex,46 Main Street,,Franklin,NJ,07416,(973) 827-9280,,John M. Sowden Iv,,12/31/2023,,,mayor@franklinborough.org ,,
0220,Franklin Lakes Borough,Bergen,DeKorte Drive,,Franklin Lakes,NJ,07417,(201) 891-0048,,Frank Bivona,,12/31/2022,,,mayor@franklinlakes.org,,
1010,Franklin Township,Hunterdon,202 Sidney Road,,Pittstown,NJ,08867,(908) 735-5215,,Phil Koury ,,12/31/2022,,,pkoury@franklin-twp.org,,
2105,Franklin Township,Warren,2093 Rt. 57,P.O. Box 547,Broadway,NJ,08808-0547,(908) 689-3994,,Mike Ferri,,12/31/2022,,,mferri@franklintwpwarren.org,,
1808,Franklin Township,Somerset,475 DeMott Lane,,Somerset,NJ,08873-7700,(732) 873-2500,,Phillip Kramer,,12/31/2023,,, mayor.kramer@franklinnj.gov,,
0805,Franklin Township,Gloucester,1571 Delsea Drive,,Franklinville,NJ,08322,(856) 694-1234,,John Bruno,,12/31/2024,,,jbruno@franklintownship.com,,
1907,Fredon Township,Sussex,443 Route 94,,Newton,NJ,07860-5158,(973) 383-7025,,John P. Flora,,12/31/2024,,, jflora@fredonnj.gov,,
1316,Freehold Borough,Monmouth,51 West Main Street,,Freehold,NJ,07728-2114,(732) 462-1410,,Kevin A. Kane,,12/31/2023,,,kkane@freeholdboro.org,,
1317,Freehold Township,Monmouth,One Municipal Plaza,,Freehold,NJ,07728-3064,(732) 294-2000,,Maureen Fasano,`,12/31/2022,,,Mfasano@twp.freehold.nj.us,,
2106,Frelinghuysen Township,Warren,210 Main Street,,Johnsonburg,NJ,07825-0000,(908) 852-4121,,Keith Ramos,,12/31/2022,,,mayor@frelinghuysen-nj.us,,
1011,Frenchtown Borough,Hunterdon,29 Second Street,,Frenchtown,NJ,08825-1131,(908) 996-4524,,Brad Myhre,,12/31/2023,,,mayor@frenchtownborough.com,,
0111,Galloway Township,Atlantic,300 East Jimmie Leeds Road,,Galloway,NJ,08205,(609) 652-3700,(609) 652-1967,"Anthony Coppola, Jr.",,12/31/2023,,,acoppola@gtnj.org,,
0221,Garfield City,Bergen,City Hall,111 Outwater Lane,Garfield,NJ,07026-2621,(973) 340-2000,(973) 253-7965,Richard Rigoglioso,,12/31/2022,,,rrigoglioso@garfieldnj.org,,
2006,Garwood Borough,Union,403 South Avenue,,Garwood,NJ,07027,(908) 789-0710,(908) 789-7978,Sara Todisco,,12/31/2022,,,STodisco@garwood.org,,
0413,Gibbsboro Borough,Camden,49 Kirkwood Road,,Gibbsboro,NJ,08026-1432,(856) 783-6655,(856) 782-8694,Edward G Campbell Iii,,12/31/2023,,,campbell@gibbsborotownhall.com,,
0806,Glassboro Borough,Gloucester,One South Main Street,,Glassboro,NJ,08028-2539,(856) 881-9230,(856) 881-9241,John E. Wallace III,,12/31/2022,,,Jwallace@glassboro.org,,
1012,Glen Gardner Borough,Hunterdon,Post Office Box 307,,Glen Gardner,NJ,08826,(908) 537-4748,,Mattias Schroeter,,12/31/2023,,,mayorschroeter@glengardner.org,,
0708,Glen Ridge Borough,Essex,825 Bloomfield Avenue,,Glen Ridge,NJ,07028,(973) 748-8400,,Stuart K Patrick,,12/31/2023,,,spatrick@glenridgenj.org,,
0222,Glen Rock Borough,Bergen,Municipal Building,One Harding Plaza,Glen Rock,NJ,07452,(201) 670-3956,,Kristine Morieko,,12/31/2023,Mayor & Council,4 & 3,kmorieko@glenrocknj.net,,
0414,Gloucester City,Camden,Municipal Building,512 Monmouth Street,Gloucester City,NJ,08030,(856) 456-0205,(856) 456-8030,Dayl R Baile,,12/31/2022,,,mayorbaile@cityofgloucester.org,,
0415,Gloucester Township,Camden,P.O. Box 8,,Blackwood,NJ,08012,(856) 228-4000,(856) 374-5721,David R. Mayer,,12/31/2022,,,Mayor@glotwp.com,Facebook@GLOUCESTERTOWNSHIP; Twitter@GLOTWP; Instagram@GLOTWP; Flicker@Gloucester Township; YouTube@Gloucester Township,
1809,Green Brook Township,Somerset,111 Greenbrook Road,,Green Brook,NJ,08812-2501,(732) 968-1023,(732) 968-4088,Jim Van Arsdale,,12/31/2022,,,jvanarsdale@greenbrooktwp.org,,
1908,Green Township,Sussex,150 Kennedy Road,Post Office Box 65,Tranquility,NJ,07879,(908) 852-9333,,"Margaret ""Peg"" Phillips ",,12/31/2023,,,clerk_admin@greentwp.com,,
0606,Greenwich Township,Cumberland,1000 Ye Greate Street,Post Office Box 64,Greenwich,NJ,08323-0064,(856) 498-5352,,Vincent Giovannitti,,12/31/2022,,,vgiovannitti@greenwichtwp.com,,
2107,Greenwich Township,Warren,321 Greenwich Street,,Stewartsville,NJ,08886,(908) 859-0909,,Robert Barsony,,12/31/2022,,,bbarsony@greenwichtownship.org,,
0807,Greenwich Township,Gloucester,420 Washington Street,,Gibbstown,NJ,08027,(856) 423-1038,,Vincent Giovannitti,,12/31/20223,,,vgiovannitti@greenwichtwp.com,,
0903,Guttenberg Town,Hudson,6808 Park Avenue,,Guttenberg,NJ,07093,(201) 868-3489,,"Wayne D. Zitt, Jr. ",,12/31/2025,,,wzitt@myguttenberg.com ,,
0223,Hackensack City,Bergen,65 Central Avenue,,Hackensack,NJ,07601-4202,(201) 646-3940,(201) 646-8059,"John P. Labrosse, Jr.",,6/30/2025,,," jlabrosse@hackensack.org, dkarlsson@hackensack.org ",,
2108,Hackettstown Township,Warren,215 Stiger Street,,Hackettstown,NJ,07840,(908) 852-3130,(908) 852-5278,"Gerald Dimaio, Jr.",,12/31/2023,,,mayor@hackettstown.net,,
0418,Haddon Heights Borough,Camden,625 Station Avenue,,Haddon Heights,NJ,08035,(856) 547-7164,,Zachary Houck,,12/31/2023,,4 year,mayor@haddonhts.com,,
0416,Haddon Township,Camden,135 Haddon Avenue,,Westmont,NJ,08108,(856) 854-1176,(856) 854-9561,Randall W Teague,,5/15/2023,,4,mayorteague@haddontwp.com,THIS IS AN ELECTION YEAR -   Election will be held on May 14th 2019 ,
0417,Haddonfield Borough,Camden,242 Kings Highway East,P.O. Box 23005,Haddonfield,NJ,08033,(856) 429-4700,(856) 795-1445,Colleen Bianco Bezich,,5/16/2025,,, cbbezich@haddonfield-nj.gov,,
0316,Hainesport Township,Burlington,One Hainesport Centre,Post Office Box 477,Hainesport,NJ,08036,(609) 267-2730,,Bruce MacLachlan,,12/31/2022,,,bmaclachlan@hainesporttownship.com,pkosko@hainesporttownship.com,
1603,Haledon Borough,Passaic,510 Belmont Avenue,,Haledon,NJ,07508,(973) 942-6538,(973) 942-8549,Domenick Stampone,,12/31/2022,,,mayor21@haledonboronj.com,,
1909,Hamburg Borough,Sussex,16 Wallkill Avenue,,Hamburg,NJ,07419-1414,(973) 827-9230,(973) 827-0466,Paul Marino,,12/31/2022,,,boro_clerk@hamburgnj.org,,
0112,Hamilton Township,Atlantic,6101 Thirteenth Street,,Mays Landing,NJ,08330-1859,(609) 625-1511,,Charles Cain,,12/31/2022,,,ccain@townshipofhamilton.com,,
1103,Hamilton Township,Mercer,2090 Greenwood Avenue,Post Office Box 0150,Hamilton,NJ,08650-0150,(609) 890-3500,,Jeffrey S. Martin,,12/31/2023,,,mayor@hamiltonnj.com,,
0113,Hammonton Town,Atlantic,100 Central Avenue,,Hammonton,NJ,08037,(609) 567-4300,,Stephen DiDonato,,12/31/2025,,,sdidonato@townofhammonton.org,,
1013,Hampton Borough,Hunterdon,Post Office Box 418,,Hampton,NJ,08827-0418,(908) 537-2329,,Todd Shaner,,12/31/2023,,,hamptonboromayor@gmail.com,,
1910,Hampton Township,Sussex,One Rumsey Way,,Newton,NJ,07860,(973) 383-5570,,Timothy Dooley,,12/31/2022,,,timothydooley495@gmail.com,,
1412,Hanover Township,Morris,1000 Route 10,Post Office Box 250,Whippany,NJ,07981-0250,(973) 428-2467,(973) 515-6681,John L. Ferramosca,,12/31/2022,Township,3 years,JlFerramosca@hanovertownship.com,,
1413,Harding Township,Morris,21 Blue Mill Road,Post Office Box 666,New Vernon,NJ,07976-0666,(973) 267-8000,,Timothy Jones,,12/31/2024,,,tjones@hardingnj.org,,
2109,Hardwick Township,Warren,40 Spring Valley Road,,Hardwick,NJ,07825-3324,(908) 362-6528,,Kevin Duffy,,12/31/2023,,,kduffy17@gmail.com,,
1911,Hardyston Township,Sussex,149 Wheatsworth Road,Suite A,Hardyston,NJ,07419-2607,(973) 823-7020,(973) 823-7021,Frank Cicerale,,12/31/2022,,,bcicerale@hardyston.com,,
2110,Harmony Township,Warren,3003 Belvidere Road,,Phillipsburg,NJ,08865,(908) 213-1600,,Brian Tipton,,12/31/2022,,, btipton@fpsflawfirm.com,,
0224,Harrington Park Borough,Bergen,85 Harriot Avenue,,Harrington Park,NJ,07640-1500,(201) 768-1700,,Paul A Hoelscher,,12/31/2023,,,clerk@harringtonparknj.gov,,
0904,Harrison Town,Hudson,318 Harrison Avenue,,Harrison,NJ,07029-1752,(973) 268-2444,,James A. Fife,,12/31/2022,,,jafife@townofharrison.com,,
0808,Harrison Township,Gloucester,114 Bridgeton Pike,,Mullica Hill,NJ,08062,(856) 478-4111,(856) 478-2498,Louis Manzo,,12/31/2022,,,lmanzo@harrisontwp.us,,
1510,Harvey Cedars Borough,Ocean,Post Office Box 3185,,Harvey Cedars,NJ,08008-0319,(609) 361-6000,(609) 494-2335,Jonathan S. Oldham,,12/31/2023,,,clerk@harveycedars.org,,
0225,Hasbrouck Heights Borough,Bergen,218-222 Boulevard,,Hasbrouck Heights,NJ,07604-1920,(201) 288-0195,,John Delorenzo Iii,,12/31/2023,,,mayordelorenzo@hasbrouck-heightsnj.org,,
0226,Haworth Borough,Bergen,300 Haworth Avenue,,Haworth,NJ,07641,(201) 384-4785,,Thomas P. Firence,,12/31/2022,,,ference@haworthnj.org,,
1604,Hawthorne Borough,Passaic,445 Lafayette Avenue,,Hawthorne,NJ,07506,(973) 427-5555,,John V. Lane,,12/31/2025,,,jlane@hawthornenj.org,,
1318,Hazlet Township,Monmouth,1766 Union Avenue,P.O. Box 371,Hazlet,NJ,07730-0371,(732) 264-1700,(732) 264-1785,Tara Corcoran-Clark,,12/31/2022,,,tclark@hazletnj.org,,
1206,Helmetta Borough,Middlesex,60 Main Street,Post Office Box 378,Helmetta,NJ,08828,(732) 521-4946,,Christopher Slavicek,,12/31/2023,,,mayor@helmettaboro.com,,
1014,High Bridge Borough,Hunterdon,71 Main Street,,High Bridge,NJ,08829,(908) 638-6455,,Michele Lee,,12/31/2022,,,mlee@highbridge.org,,
1207,Highland Park Borough,Middlesex,221 S. Fifth Avenue,,Highland Park,NJ,08904-2608,(732) 572-3400,,Gayle Brill Mittler,,12/31/2024,,,gbrillmittler@hpboro.com,"Facebook: Highland Park, New Jersey",
1319,Highlands Borough,Monmouth,171 Bay Avenue,,Highlands,NJ,07732,(732) 872-1224,,Carolyn Broullon,,12/31/2022,,,cbroullon@highlandsborough.org,,
1104,Hightstown Borough,Mercer,148 North Main Street,,Hightstown,NJ,08520-3249,(609) 490-5100,,Lawrence D Quattrone,,12/31/2022,,,quattrone@hightstownborough.com,,
1810,Hillsborough Township,Somerset,379 South Branch Road,,Hillsborough,NJ,08844,(908) 369-3535,(908) 369-3981,Shawn Lipani,,12/31/2022,,,slipani@hillsborough-nj.org,,
0227,Hillsdale Borough,Bergen,380 Hillsdale Avenue,,Hillsdale,NJ,07642,(201) 666-4800,(201) 358-5002,John J. Ruocco,,12/31/2023,,,jruocco@hillsdalenj.org ,,
2007,Hillside Township,Union,JFK Plaza,Liberty & Hillside Avenues,Hillside,NJ,07205,(973) 926-3002,(973) 926-9232,Dahlia Vertreese,,12/31/2025,,,mayordvertreese@hillsidenj.us,,
0419,Hi-Nella Borough,Camden,100 Wykagyl Road,,Hi-Nella,NJ,08083,(856) 784-6237,,Michael Segeren,,12/31/2023,,,msegeren@hinellaboro.org,,
0905,Hoboken City,Hudson,94 Washington Street,,Hoboken,NJ,07030-4556,(201) 420-2013,,Ravi S. Bhalla,,12/31/2022,,,rbhalla@hobokennj.gov,,
0228,Ho-Ho-Kus Borough,Bergen,333 Warren Avenue,,Ho-Ho-Kus,NJ,07423-1594,(201) 652-4400,,Thomas W Randall,,12/31/2023,,,randallt@ho-ho-kusboro.com,,
1015,Holland Township,Hunterdon,61 Church Road,,Milford,NJ,08848,(908) 995-4847,(908) 995-7112,Daniel Bush,,12/31/2022,,,d.bush@hollandtownship.org,,
1320,Holmdel Township,Monmouth,Post Office Box 410,,Holmdel,NJ,07733,(732) 946-2820,,Gregory Buontempo,,12/31/2022,,,Gbuontempo@holmdeltownship-nj.com,,
1912,Hopatcong Borough,Sussex,111 River Styx Road,,Hopatcong,NJ,07843,(973) 770-1200,,Michael Francis,,12/31/2023,,,mfrancis@hopatcong.org,,
2111,Hope Township,Warren,Post Office Box 284,,Hope,NJ,07844-0284,(908) 459-5011,,Tiimothy C. McDonough,,12/31/2022,,,timothymcdonough@embarqmail.com,,
1105,Hopewell Borough,Mercer,88 East Broad Street,,Hopewell,NJ,08525-1820,(609) 466-2636,,Paul Anzano,,12/31/2023,,,panzano@rcn.com,,
0607,Hopewell Township,Cumberland,590 Shiloh Pike,,Bridgeton,NJ,08302-1492,(856) 455-1230,(856) 455-3080,Paul J. Ritter,,12/31/2022,,,mayor@hopewelltwp-nj.com,,
1106,Hopewell Township,Mercer,201 Washington Crossing-Pennington Road,,Titusville,NJ,08560-1410,(609) 737-0605,,Julie Blake,,12/31/2022,,,jblake@hopewelltwp.org,,
1321,Howell Township,Monmouth,4567 Route 9 North,Post Office Box 580,Howell,NJ,07731,(732) 938-4500,(732) 938-6945,Theresa Berger,,12/31/2024,,,tberger@twp.howell.nj.us,,
2112,Independence Township,Warren,286-B Route 46,Post Office Box 164,Great Meadows,NJ,07838,(908) 637-4133,(908) 637-8844,Robert E. Giordano,,12/31/2024,,,bobgnj@comcast.net,,
1322,Interlaken Borough,Monmouth,100 Grasmere Avenue,,Interlaken,NJ,07712,(732) 531-7405,,Michaelj. Nohilly,,12/31/2023,,,mnohilly@interlakenboro.com,,
0709,Irvington Township,Essex,Municipal Building,Civic Square,Irvington,NJ,07111-2412,(973) 399-6639,(973) 399-7321,Anthony Vauss,,6/30/2022,,,mayortvauss@gmail.com,,
1511,Island Heights Borough,Ocean,Post Office Box 797,,Island Heights,NJ,08732,(732) 270-6415,,Steve Doyle,,12/31/2022,,,MayorDoyle@islandheightsboro.com,,
1512,Jackson Township,Ocean,95 West Veterans Highway,,Jackson,NJ,08527,(732) 928-1200,,Michael Reina,,12/31/2022,,,mikereina@jacksontwpnj.net,Township of Jackson ,
1208,Jamesburg Borough,Middlesex,131 Perrineville Road,,Jamesburg,NJ,08831-1672,(732) 521-2222,,Marlene Lowande,,12/31/2023,,,mlowande@jamesburgborough.org,,
1414,Jefferson Township,Morris,1033 Weldon Road,,Lake Hopatcong,NJ,07849,(973) 208-6100,,Eric F. Wilsusen,,12/31/2022,,,Addressmayor@jeffersontownship.net,,
0906,Jersey City,Hudson,280 Grove Street,,Jersey City,NJ,07302-3610,(201) 547-5150,,Steven Fulop,,11/30/2022,,,fulops@jcnj.org,,
1323,Keansburg Borough,Monmouth,29 Church Street,,Keansburg,NJ,07734-1441,(732) 787-0215,,George Hoff,,6/30/2024,Mayor-Council,,huferunt23@verizon.net,,
0907,Kearny Town,Hudson,402 Kearny Avenue,,Kearny,NJ,07032,(201) 955-7400,,Alberto G. Santos,,12/31/2022,,,mayor@kearnynj.org,,
2008,Kenilworth Borough,Union,567 Boulevard,,Kenilworth,NJ,07033-1696,(908) 276-9090,,Linda Karlovitch,,12/31/2023,,,l.karlovitch@kenilworthnj.org,,
1324,Keyport Borough,Monmouth,70 W Front Street,,Keyport,NJ,07735-1241,(732) 739-3900,(732) 739-8738,Collette J. Kennedy,,12/31/2022,,,mayorkennedy@keyportonline.com,,
1016,Kingwood Township,Hunterdon,Post Office Box 199,,Baptistown,NJ,08803-0199,(908) 996-4276,,Thomas Ciacciarelli,,12/31/2022,,4 year,tciacciarelli@kingwoodtownship.com,,
1415,Kinnelon Borough,Morris,130 Kinnelon Road,,Kinnelon,NJ,07405-2336,(973) 838-5401,,James J. Freda,,12/31/2022,,,jfreda@kinnelonboro.org,,
2113,Knowlton Township,Warren,Municipal Building,628 Route 94,Columbia,NJ,07832-2526,(908) 496-4816,,Adele Starrs,,12/31/2022,,,tandastarrs@hotmail.com,,
1513,Lacey Township,Ocean,818 Lacey Road,,Forked River,NJ,08731,(609) 693-1100,,Tim McDonald,,12/31/2023,,,Tmcdonald@laceytownship.org,,
1913,Lafayette Township,Sussex,33 Morris Farm Road,,Lafayette,NJ,07848-4605,(973) 383-1817,(973) 383-0567,Kevin K. O''Leary,,12/31/2022,,,lafayetteclk@embarqmail.com,,
1346,Lake Como Borough,Monmouth,1740 Main Street,,Lake Como,NJ,07719,(732) 681-3232,,Kevin Higgins,,12/31/2022,,, khiggins@boro.lake-como.nj.us,,
1514,Lakehurst Borough,Ocean,5 Union Avenue,,Lakehurst,NJ,08733-3017,(732) 657-4141,(732) 657-8272,Harry Robbins,,12/31/2023,,,hrobbins@lakehurst-nj.gov,,
1515,Lakewood Township,Ocean,Municipal Building,231 Third Street,Lakewood,NJ,08701-0000,(732) 364-2500,,Raymond G. Coles,,12/31/2023,,,rcoles@lakewoodnj.gov ,,
1017,Lambertville City,Hunterdon,18 York Street,,Lambertville,NJ,08530-2038,(609) 397-0110,(609) 397-2203,Andrew J. Nowick,,12/31/2024,,,mayornowick@lambertvillenj.org,,
0420,Laurel Springs Borough,Camden,135 Broadway,,Laurel Springs,NJ,08021-2006,(856) 784-0500,(856) 784-5880,Thomas A Barbera,,12/31/2023,,,dawn@laurelsprings-nj.com,,
1516,Lavallette Borough,Ocean,1306 Grand Central Avenue,,Lavallette,NJ,08735-2336,(732) 793-7477,,Walter Lacicero,,12/31/2022,,,deputyclerk@lavallette.org,,
0421,Lawnside Borough,Camden,4 East Douglas Avenue,,Lawnside,NJ,08045-1597,(856) 573-6200,(856) 546-3232,Mary Ann Wardlow,,12/31/2022,,,mayorwardlow@lawnside.net,,
1107,Lawrence Township,Mercer,2207 Lawrence Road,Post Office Box 6006,Lawrenceville,NJ,08648,(609) 844-7000,(609) 896-0412,John T. Ryan,,12/31/2023,,,jryan@lawrencetwp.com,,
0608,Lawrence Township,Cumberland,357 Main Street,Post Office Box 697,Cedarville,NJ,08311-0697,(856) 447-4554,(856) 447-3055,Joseph A. Miletta Jr.,,12/31/2024,,, jamiletta@verizon.net,,
1018,Lebanon Borough,Hunterdon,6 High Street,,Lebanon,NJ,08833,(908) 236-2425,,James J. Pittinger,,12/31/2022,,,mayor@lebanonboro.com,,
1019,Lebanon Township,Hunterdon,530 West Hill Road,,Glen Gardner,NJ,08826,(908) 638-8523,,Michael Schmidt,,12/31/2022,,,schmidt@lebtwp.net,,
0229,Leonia Borough,Bergen,312 Broad Avenue,,Leonia,NJ,07605,(201) 944-0508,(201) 592-5746,Judah Zeigler,,12/31/2023,MAYOR-COUNCIL,4 & 3,jzeigler@leonianj.gov,,
2114,Liberty Township,Warren,349 Mountain Lake Road,,Great Meadows,NJ,07838-2355,(908) 637-4579,,John Inscho,,12/31/2024,,, j.inscho@libertytownship.org,libertytownship.org,
1416,Lincoln Park Borough,Morris,34 Chapel Hill Road,,Lincoln Park,NJ,07035,(973) 694-6100,,David A Runfeldt,,12/31/2022,,,MayorRunfeldt@bolp.org,,
2009,Linden City,Union,301 North Wood Avenue,,Linden,NJ,07036-4296,(908) 474-8493,(908) 474-8497,Derek Armstead,,12/31/2022,,,darmstead@linden-nj.org,,
0422,Lindenwold Borough,Camden,2001 Egg Harbor Road,,Lindenwold,NJ,08021,(856) 783-2121,,Richard E. Roach,,12/31/2023,,,rroach@lindenwold.net,,
0114,Linwood City,Atlantic,400 Poplar Avenue,,Linwood,NJ,08221,(609) 927-4108,,Darren Matik,,12/31/2023,,,dmatik@linwoodcity.org,,
1517,Little Egg Harbor Township,Ocean,665 Radio Road,,Little Egg Harbor,NJ,08087-1885,(609) 296-7241,,John P. Kehm Jr.,,12/31/2022,,, jkehm@leht.com,,
1605,Little Falls Township,Passaic,225 Main Street,,Little Falls,NJ,07424,(973) 890-4500,(973) 890-4501,James Belford Damiano,,12/31/2024,,,jdamiano@lfnj.com,,
0230,Little Ferry Borough,Bergen,215-217 Liberty Street,,Little Ferry,NJ,07643,(201) 641-9234,,Mauro Raguseo,,12/31/2023,,,mayor@littleferrynj.org,,
1325,Little Silver Borough,Monmouth,480 Prospect Avenue,,Little Silver,NJ,07739,(732) 842-2400,,"Robert C Neff, Jr.",,12/31/2023,,,rneff@littlesilver.org,,
0710,Livingston Township,Essex,357 South Livingston Avenue,,Livingston,NJ,07039,(973) 992-5000,(973) 992-7531,Edward Meinhardt,,12/31/2022,,,townclerk@livingstonnj.org,"Twitter: @Livngston_NJ; FB: Livingston Township, NJ",
1326,Loch Arbour Village,Monmouth,550 Main Street,,Loch Arbour,NJ,07711,(732) 531-4740,,Paul V. Fernicola,,12/31/2024,,,clerk@locharbour.us,,
0231,Lodi Borough,Bergen,One Memorial Drive,,Lodi,NJ,07644-1632,(973) 365-4005,,Scott A. Luna,,6/30/2023,,,sluna@lodi-nj.org,,
0809,Logan Township,Gloucester,125 Main Street,Post Office Box 314,Bridgeport,NJ,08014,(856) 467-3424,,Frank W Minor,,12/31/2023,,,fminor@logan-twp.org,,
1518,Long Beach Township,Ocean,6805 Long Beach Boulevard,,Brant Beach,NJ,08008,(609) 361-1000,,JJoseph H. Mancini,,12/31/2024,,,mancini@longbeachtownship.com,,
1327,Long Branch City,Monmouth,344 Broadway,,Long Branch,NJ,07740,(732) 222-7000,,John Pallone,,6/30/2022,,,johnpallone@longbranch.org,,
1430,Long Hill Township,Morris,915 Valley Road,,Gillette,NJ,07933,(908) 647-8000,,Matthew Dorsi ,,12/31/2022,,,mattd@longhillnj.gov,,
0115,Longport Borough,Atlantic,2305 Atlantic Avenue,,Longport,NJ,08403,(609) 823-7514,,Nicholas Russo,,12/31/2024,,,clerk@longport-nj.us,,
2115,Lopatcong Township,Warren,232 South Third Street,,Phillipsburg,NJ,08865,(908) 859-3355,,James E. Mengucci,,12/31/2023,,,menguccij@lopatcongtwp.com,,
1705,Lower Alloways Creek Township,Salem,Post Office Box 157,PO Box 157,Hancock's Bridge,NJ,08038,(856) 935-1549,(856) 935-7666,Timothy W. Bradway,,12/31/2022,,,mayor@lowerallowayscreek-nj.gov,,
0505,Lower Township,Cape May,2600 Bayshore Road,,Villas,NJ,08251-1397,(609) 886-2005,(609) 886-1694,Frank Sippel,,12/31/2024,,,fsippel@townshipoflower.org,,
0317,Lumberton Township,Burlington,35 Municipal Drive,,Lumberton,NJ,08048-4516,(609) 267-3217,,Gina LaPlaca,,12/31/2022,,,glaplaca@lumbertontwp.com,,
0232,Lyndhurst Township,Bergen,367 Valley Brook Avenue,,Lyndhurst,NJ,07071-1810,(201) 804-2457,(201) 939-0114,Robert B. Giangeruso,,5/17/2022,,,GIANGERUSOR@lyndhurstnj.org,,
1417,Madison Borough,Morris,Hartley Dodge Memorial,50 Kings Road,Madison,NJ,07940-2575,(973) 593-3042,,Robert H Conley,,12/31/2023,,,mayor@rosenet.org,,
0423,Magnolia Borough,Camden,438 West Evesham Avenue,,Magnolia,NJ,08049,(856) 783-1520,(856) 627-7294,Bettyann Cowling-Carson,,12/31/2023,,,baccarson@magnolia-nj.org,,
0233,Mahwah Township,Bergen,475 Corporate Drive,,Mahwah,NJ,07430,(201) 529-5757,,James Wysocki,,12/31/2024,4 year,,jwysocki@mahwahtwp.org,,
1328,Manalapan Township,Monmouth,120 Route 522,,Manalapan,NJ,07726-3417,(732) 446-8307,,Susan Cohen,,12/31/2022,,,mayor@mtnj.org,,
1329,Manasquan Borough,Monmouth,201 East Main Street,,Manasquan,NJ,08736-3004,(732) 223-0544,,Edward G Donovan,,12/31/2023,,,edonovan@manasquan-nj.gov,,
1519,Manchester Township,Ocean,One Colonial Drive,,Manchester,NJ,08759,(732) 657-8121,(732) 657-8085,Robert A. Hudak,,12/31/2022,,,rhudak@manchestertwp.com,,
1706,Mannington Township,Salem,491 Route 45,,Mannington,NJ,08079,(856) 935-2359,(856) 935-6557,Donald C. Asay,,12/31/2022,,,dasay@manningtontwp.com,,
2116,Mansfield Township,Warren,100 Port Murray Road,,Port Murray,NJ,07865-4020,(908) 689-6151,,Joseph Watters,,12/31/2022,,,jwatters@mansfieldtownship-nj.gov,,
0318,Mansfield Township,Burlington,Post Office Box 249,,Columbus,NJ,08022,(609) 298-0542,,Marcial Mojena,,12/31/2024,,,mmojena@mansfieldtwp.com ,,
1520,Mantoloking Borough,Ocean,202 Downer Avenue,P.O. Box 247,Mantoloking,NJ,08738-0247,(732) 899-6600,(732) 899-9643,E. Laurence (Lance) White,,12/31/2022,,,lwhite@mantoloking.org,,
0810,Mantua Township,Gloucester,401 Main Street,,Mantua,NJ,08051,(856) 468-1500,(856) 464-1022,Peter Scirrotto,,12/31/2022,Committee,3 years,pscirrotto@mantuatownship.com,,
1811,Manville Borough,Somerset,325 North Main Street,,Manville,NJ,08835-1346,(908) 725-9478,(908) 231-8620,Richard Onderko,,12/31/2023,,4 year,mayoronderko@manvillenj.org,,
0319,Maple Shade Township,Burlington,200 Stiles Avenue,,Maple Shade,NJ,08052,(856) 779-9610,(856) 779-2524,Claire B. Volpe,,12/31/2024,,,Cvolpe@mapleshade.com,,
0711,Maplewood Township,Essex,574 Valley Street,,Maplewood,NJ,07040-2669,(973) 762-8120,,Dean Dafis,,12/31/2022,,,ddafis@twp.maplewood.nj.us,,
0116,Margate City,Atlantic,One South Washington Avenue,,Margate,NJ,08402-2301,(609) 822-2605,,Michael Becker,,5/9/2023,,4,MayorBecker@margate-nj.com,,
1330,Marlboro Township,Monmouth,1979 Township Drive,,Marlboro,NJ,07746,(732) 536-0200,,Jonathan L Hornik,,12/31/2023,,,mayor@marlboro-nj.gov,Facebook: @marlborotownship;  Twitter: @marlborotwp; Instagram: Marlborotownship,
1331,Matawan Borough,Monmouth,201 Broad Street,,Matawan,NJ,07747,(732) 566-3898,,Joseph Altomonte,,12/31/2023,,,joseph.altomonte@matawanborough.com,,
0609,Maurice River Township,Cumberland,590 Main Street,Post Office Box 218,Leesburg,NJ,08327,(856) 785-1120,(856) 785-1974,Glenn Ewan,,12/31/2023,,,Gewan@mauricerivertwp.org,,
0234,Maywood Borough,Bergen,15 Park Avenue,,Maywood,NJ,07607-2015,(201) 845-2900,(201) 909-0673,Richard Bolan,,12/31/2023,,,rbolan@maywoodboro.org,,
0321,Medford Lakes Borough,Burlington,1 Cabin Circle,,Medford Lakes,NJ,08055-2750,(609) 654-8898,(609) 654-1816,Robert D Hanold Sr. ,,6/30/2022,1923 MGR. Form of Gov't,,Hanold@medfordlakes.com,,
0320,Medford Township,Burlington,17 North Main Street,,Medford,NJ,08055-2411,(609) 654-2608,(609) 953-4087,Charles Watson,,12/31/2022,,,cwatson@medfordtownship.com,,
1418,Mendham Borough,Morris,2 West Main Street,,Mendham,NJ,07945,(973) 543-7152,,Christine Serrano-Glassner,,12/31/2022,,,cglassner@mendhamnj.org,,
1419,Mendham Township,Morris,Post Office Box 520,,Brookside,NJ,07926,(973) 543-4555,,Christine Serrano Glassner ,,12/31/2022,,,cglassner@mendhamnj.org,,
0424,Merchantville Borough,Camden,One West Maple Avenue,,Merchantville,NJ,08109,(856) 662-2474,(856) 662-0461,Edward Brennan,,12/31/2022,,,mayor@merchantvillenj.gov,,
1209,Metuchen Borough,Middlesex,500 Main St.,,Metuchen,NJ,08840,(732) 632-8540,(732) 632-8114,Jonathan M. Busch,,12/31/2023,,,jbusch@metuchen.com,,
0506,Middle Township,Cape May,33 Mechanic Street,,Cape May Court House,NJ,08210,(609) 465-8732,(609) 465-6772,Timothy C. Donohue,,12/31/2023,,,tdonohue@middletownship.com,,
1210,Middlesex Borough,Middlesex,1200 Mountain Avenue,,Middlesex,NJ,08846,(732) 356-7400,(732) 356-7954,John Madden,,12/31/2023,Mayor/Council,43924,mayor@middlesexboro-nj.gov,,
1332,Middletown Township,Monmouth,One Kings Highway,,Middletown,NJ,07748,(732) 615-2000,(732) 671-6211,Anthony S. Perry,,12/31/2022,,,mayorsoffice@middletownnj.org,,
0235,Midland Park Borough,Bergen,280 Godwin Avenue,,Midland Park,NJ,07432,(201) 445-5720,(201) 652-6348,Harry Shortway Jr,,12/31/2023,,,hshortway@midlandparknj.org,,
1020,Milford Borough,Hunterdon,Post Office Box 507,,Milford,NJ,08848-0507,(908) 995-4323,(908) 995-2343,Henry Schepens,,12/31/2023,mayor council,4yr 3 yr,schepensmilfordboro@gmail.com,,2018
0712,Millburn Township,Essex,375 Millburn Avenue,,Millburn,NJ,07041,(973) 564-7075,,Maggee Miggins,,12/31/2023,,,mmiggins@millburntwp.org,Facebook: https://www.facebook.com/millburntwp/: @MillburnTwp,
1812,Millstone Borough,Somerset,1353 Main Street,,Millstone,NJ,08844,(908) 359-5783,,Raymond Heck,,12/31/2022,,,mayor@millstoneboro.org,,
1333,Millstone Township,Monmouth,Post Office Box 240,,Perrineville,NJ,08535,(732) 446-4249,,Al Ferro,,12/31/2022,,,aferro@millstonenj.gov,,
1211,Milltown Borough,Middlesex,39 Washington Avenue,,Milltown,NJ,08850,(732) 828-2100,,Trina Mehr,,12/31/2023,Mayor Council,4 and 3,tmehr@milltownboro.com,,2019
0610,Millville City,Cumberland,12 South High Street,Post Office Box 609,Millville,NJ,08332,(856) 825-7000,,Lisa M. Orndorf,,12/31/2025,,,Lisa.Orndorf@millvillenj.gov,,
1420,Mine Hill Township,Morris,10 Baker Street,,Mine Hill,NJ,07803,(973) 366-9031,,Sam Morris,,12/31/2023,,,MayorSamMorris@MineHill.com,,
1334,Monmouth Beach Borough,Monmouth,22 Beach Road,,Monmouth Beach,NJ,07750,(732) 229-2204,,David F. Stickle ,,5/11/2022,,,dstickle@monmouthbeach.org,,
0811,Monroe Township,Gloucester,125 Virginia Avenue,,Williamstown,NJ,08094,(856) 728-9800,(856) 728-1240,Richard Dilucia,,12/31/2022,,,mayor@monroetownshipnj.org,,
1212,Monroe Township,Middlesex,One Municipal Plaza,,Monroe,NJ,08831-1900,(732) 521-4400,,Stephen  Dalina,,12/31/2023,,,sdalina@monroetwp.com,,
1914,Montague Township,Sussex,277 Clove Road,,Montague,NJ,07827-3122,(973) 293-7300,(973) 293-7467,Richard E. Innella,,12/31/2022,,,mayor@montaguenj.org,,
0713,Montclair Township,Essex,205 Claremont Avenue,,Montclair,NJ,07042-3401,(973) 509-4900,(973) 509-3822,Sean M. Spiller,,12/31/2024,,,sspiller@montclairnjusa.org,,
1813,Montgomery Township,Somerset,2261 Van Horne Road,Route 206,Belle Mead,NJ,08502-4012,(908) 359-8211,,Devra Keenan,,12/31/2022,,1 year,dkeenan@montgomerynj.gov,,
0236,Montvale Borough,Bergen,12 Mercedes Drive,,Montvale,NJ,07645-1847,(201) 391-5700,(201) 391-9317,Michael N. Ghassali,,12/31/2023,,,mghassali@montvaleboro.org,@Mayor Ghassali,
1421,Montville Township,Morris,195 Changebridge Road,,Montville,NJ,07045-8934,(973) 331-3304,(973) 402-0787,Frank Cooney,,12/31/2022,,,fcooney@montvillenj.org,,
0237,Moonachie Borough,Bergen,70 Moonachie Road,,Moonachie,NJ,07074,(201) 641-9117,(201) 641-9542,Dennis Vaccaro,,12/31/2022,,,dvaccaro@moonachie.us,,
0322,Moorestown Township,Burlington,2 Executive Drive,Suite 9-A,Moorestown,NJ,08057-2480,(856) 914-3001,(856) 914-3066,Nicole Gillespie,,12/31/2022,,,ngillespie@moorestown.nj.us,,
1423,Morris Plains Borough,Morris,531 Speedwell Avenue,,Morris Plains,NJ,07950,(973) 538-2224,,Jason C. Karr,,12/31/2022,,,jkarr@morrisplainsboro.org,,
1422,Morris Township,Morris,50 Woodland Avenue,Post Office Box 7603,Convent Station,NJ,07961-6075,(973) 326-7430,,Peter V. Mancuso,,12/31/2022,,,pmancuso@morristwp.com,,
1424,Morristown Town,Morris,200 South Street,Post Office Box 914,Morristown,NJ,07963-0914,(973) 292-6629,(973) 267-2726,Timothy P. Dougherty,,12/31/2025,,,Mayor@townofmorristown.org,,
1426,Mount Arlington Borough,Morris,419 Howard Boulevard,,Mount Arlington,NJ,07856-1004,(973) 398-6832,,Michael Stanzilis,,12/31/2022,,,crinaldi@mtarlingtonboro.com,,
0425,Mount Ephraim Borough,Camden,121 South Black Horse Pike,,Mount Ephraim,NJ,08059-1721,(856) 931-1546,,Joseph E Wolk,,5/15/2023,,4,jwolk@mountephraim-nj.com.,,
0323,Mount Holly Township,Burlington,23 Washington Street,Post Office Box 411,Mount Holly,NJ,08060,(609) 845-1102,(609) 267-8155,Jason Jones,,6/30/2023,,,jjones@twp.mountholly.nj.us,,
0324,Mount Laurel Township,Burlington,100 Mount Laurel Road,,Mount Laurel,NJ,08054,(856) 234-0001,,Kareem Pritchett,,12/31/2022,,,kpritchett@mountlaurel.com,,2012
1427,Mount Olive Township,Morris,Post Office Box 450,204 Flanders-Drakestown Road,Budd Lake,NJ,07828-0450,(973) 691-0900,(973) 691-9257,Robert Greenbaum,,12/31/2023,,,rgreenbaum@mtolivetwp.org,,
1425,Mountain Lakes Borough,Morris,400 Boulevard,,Mountain Lakes,NJ,07046-1527,(973) 334-3131,,Thomas Menard,,12/31/2022,,,tmenard@mtnlakes.org,,2019
2010,Mountainside Borough,Union,1385 Route 22,,Mountainside,NJ,07092-2605,(908) 232-2400,,Paul N. Mirabelli,,12/31/2023,,,pmirabelli@mountainside-nj.com,,
0117,Mullica Township,Atlantic,4528 White Horse Pike,Post Office Box 317,Elwood,NJ,08217,(609) 561-0064,(609) 561-3031,Bruce Crowe ,,12/31/2024,,,bcrowe@mullicatownship.org,,
0812,National Park Borough,Gloucester,7 South Grove Avenue,,National Park,NJ,08063,(856) 845-3891,(856) 845-0726,Mark Cooper,,12/31/2023,Mayor & Council,4 & 3,mtcoop1@gmail.com,,2019
1336,Neptune City,Monmouth,106 West Sylvania Avenue,,Neptune City,NJ,07753-6428,(732) 776-7224,(732) 776-8906,Andrew Wardell,,12/31/2023,,,awardell@neptunecitynj.com,,
1335,Neptune Township,Monmouth,Post Office Box 1125,25 Neptune Boulevard,Neptune,NJ,07754-1125,(732) 988-5200,(732) 775-7600,Nicholas Williams,,12/31/2022,,,NWilliams@neptunetownship.org,,
1428,Netcong Borough,Morris,23 Maple Avenue,,Netcong,NJ,07857,(973) 347-0252,,Joseph A. Nametko,,12/31/2023,,,jname1@optonline.net,,
1213,New Brunswick City,Middlesex,City Hall,78 Bayard Street,New Brunswick,NJ,08901-2113,(732) 745-5004,,James M Cahill,,12/31/2022,,,cityclerk@cityofnewbrunswick.org,,
0325,New Hanover Township,Burlington,Post Office Box 159,,Cookstown,NJ,08511,(609) 758-2172,,Paul D. Peteria,,12/31/2023,,,mayor@newhanovertwp.com; clerk@newhanovertwp.com ,,2010
0238,New Milford Borough,Bergen,930 River Road,,New Milford,NJ,07646-3043,(201) 967-5044,,Michael Putrino,,12/31/2022,,,mputrino@newmilfordboro.com,,
2011,New Providence Borough,Union,360 Elkwood Avenue,,New Providence,NJ,07974,(908) 665-1400,,Allen Morgan,,12/31/2022,,,amorgan@newprov.org, Newprovnj,
0714,Newark City,Essex,920 Broad Street,,Newark,NJ,07102,(973) 733-6400,,Ras J. Babaka,,6/30/2022,,,louisk@ci.newark.nj.us,,
0813,Newfield Borough,Gloucester,18 Catawba Avenue,Post Office Box 856,Newfield,NJ,08344,(856) 697-1100,(856) 697-3014,Donald Sullivan,,12/31/2022,,,sulldon108@gmail.com,,
1915,Newton Town,Sussex,39 Trinity Street,,Newton,NJ,07860-1823,(973) 383-3521,(973) 383-8961,Jason J. Schlaffer,,12/31/2022,,,mdickson@newtontownhall.com,,
0239,North Arlington Borough,Bergen,214 Ridge Road,,North Arlington,NJ,07031-6036,(201) 991-6060,,Daniel H. Pronti,,12/31/2022,,,dpronti@northarlington.org ,,
0908,North Bergen Township,Hudson,4233 Kennedy Boulevard,,North Bergen,NJ,07047-2779,(201) 392-2005,(201) 330-7694,Nicholas Sacco,,5/15/2023,,4,"surgelles@northbergen.org, ghernandez@northbergen.org ",Facebook: @officialnorthbergennj,
1214,North Brunswick Township,Middlesex,710 Hermann Road,Post Office Box 6019,North Brunswick,NJ,08902,(732) 247-0922,(732) 220-0761,Francis Womack  Iii,,12/31/2023,,,mayorwomack@northbrunswicknj.gov,,
0715,North Caldwell Borough,Essex,Municipal Building,141 Gould Avenue,North Caldwell,NJ,07006-4213,(973) 228-6410,,Joseph Alessi,,12/31/2022,,,mayor@northcaldwell.org,,
1606,North Haledon Borough,Passaic,103 Overlook Avenue,,North Haledon,NJ,07508,(973) 427-7793,,Randy George,,12/31/2022,,,mayor@northhaledon.com,,
0326,North Hanover Township,Burlington,41 Schoolhouse Road,,Jacobstown,NJ,08562-2106,(609) 758-2522,,Ronald Debaecke,,12/31/2022,,,rdebaecke@northhanovertwp.com,,
1814,North Plainfield Borough,Somerset,263 Somerset Street,,North Plainfield,NJ,07060-4895,(908) 769-2902,,Lawrence La Ronde,4 year term,12/31/2024,,,llronde@npmail.org,,
0507,North Wildwood City,Cape May,901 Atlantic Avenue,,North Wildwood,NJ,08260,(609) 522-2030,(609) 523-8502,Patrick T. Rosenello,,12/31/2025,,,prosenello@northwildwood.com,,
0118,Northfield City,Atlantic,1600 Shore Road,,Northfield,NJ,08225-2201,(609) 641-2832,,Erland Chau,,12/31/2023,,,echau@cityofnorthfield.org,,
0240,Northvale Borough,Bergen,116 Paris Avenue,,Northvale,NJ,07647,(201) 767-3330,,Patrick Marana,,12/31/2022,,,pmarana@boroughofnorthvale.com,,
0241,Norwood Borough,Bergen,455 Broadway,,Norwood,NJ,07648,(201) 767-7200,,James P Barsa,,12/31/2023,,,jbarsa@norwoodboro.org,,
0716,Nutley Township,Essex,One Kennedy Drive,,Nutley,NJ,07110-2786,(973) 284-4951,(973) 661-0972,Mauro G. Tucci,,5/19/2022,Non Partisan,,mayortucci@nutleynj.org,,
0242,Oakland Borough,Bergen,One Municipal Plaza,,Oakland,NJ,07436-1827,(201) 337-8111,,Linda H Schwager,,12/31/2023,,,mayorschwager@oakland-nj.org,,
0426,Oaklyn Borough,Camden,500 White Horse Pike,,Oaklyn,NJ,08107,(856) 858-2457,,Linda H. Schwager,,12/31/2023,,,mayorschwager@oakland-nj.org,,
0508,Ocean City,Cape May,861 Asbury Avenue,,Ocean City,NJ,08226,(609) 525-9351,(609) 399-3697,Jay A. Gillian,,6/30/2022,,,mayor@ocnj.us,,
1522,Ocean Gate Borough,Ocean,151 East Longport Avenue,CN 100,Ocean Gate,NJ,08740,(732) 269-3166,,Paul J Kennedy,,12/31/2022,,,ogmayor@verizon.net,,
1521,Ocean Township,Ocean,50 Railroad Avenue,,Waretown,NJ,08758,(609) 693-3302,,Ben LoParo,,12/31/2022,,,mayor@twpoceannj.gov,,
1337,Ocean Township,Monmouth,399 Monmouth Road,,Oakhurst,NJ,07755-1550,(732) 531-5000,,Christopher P. Siciliano,,12/31/2023,,,mayor@twpoceannj.gov,,
1338,Oceanport Borough,Monmouth,222 Monmouth Boulevard,Post Office Box 370,Oceanport,NJ,07757,(732) 222-8221,,John F Coffey Ii,,12/31/2023,,4 year,mayor@oceanportboro.com ,,
1916,Ogdensburg Borough,Sussex,14 Highland Avenue,,Ogdensburg,NJ,07439-1254,(973) 827-3444,,George P. Hutnick,,12/31/2022,,,oburgmayor@gmail.com,,
1215,Old Bridge Township,Middlesex,One Old Bridge Plaza,,Old Bridge,NJ,08857,(732) 721-5600,(732) 607-7957,Owen Henry,,12/31/2023,,,mayor@oldbridge.com,,
0243,Old Tappan Borough,Bergen,227 Old Tappan Road,,Old Tappan,NJ,07675,(201) 664-1849,,John M. Kramer,,12/31/2023,,,boyce@oldtappan.net,,
1707,Oldmans Township,Salem,Post Office Box 416,,Pedricktown,NJ,08067,(856) 299-0780,,Dean W. Sparks,,12/31/2022,,,Dsparks@oldmanstownship.com,,
0244,Oradell Borough,Bergen,355 Kinderkamack Road,,Oradell,NJ,07649,(201) 261-8200,,Dianne Camelo Didio,,12/31/2023,,,mayor@oradell.org,,2019
0717,Orange City Township,Essex,29 North Day Street,,Orange,NJ,07050,(973) 266-4005,(973) 676-7459,Dwayne D. Warren,,6/302024,,,dwarren@orangenj.gov,,
2117,Oxford Township,Warren,11 Green Street,,Oxford,NJ,07863,(908) 453-3098,,Linda Koufodontes,,12/31/2023,,,lkoufodontes@oxfordtwpnj.org,,
0245,Palisades Park Borough,Bergen,275 Broad Avenue,,Palisades Park,NJ,07650,(201) 585-4100,,Christopher J. Chung,,12/31/2022,,,cchung@palisadesparknj.us,,
0327,Palmyra Borough,Burlington,20 West Broad Street,,Palmyra,NJ,08065,(856) 829-6100,(856) 692-3058,Gina Ragomo Tait,,12/31/2023,,,gtait@boroughofpalmyra.com,,
0246,Paramus Borough,Bergen,1 Jockish Square,Borough Hall,Paramus,NJ,07652-2728,(201) 265-2100,(201) 265-0086,Richard LaBarbiera,,12/31/2022,,,rlabarbiera@paramusborough.org,,
0247,Park Ridge Borough,Bergen,55 Park Avenue,,Park Ridge,NJ,07656,(201) 573-1800,,Keith Misciagna,,12/31/2023,,,kmisciagna@parkridgeboro.com,,
1429,Parsippany-Troy Hills Township,Morris,1001 Parsippany Boulevard,,Parsippany,NJ,07054-1277,(973) 263-4297,,James Barberio,,12/31/2025,,,jrbarberio@parsippany.net,,
1607,Passaic City,Passaic,330 Passaic Street,,Passaic,NJ,07055-5815,(973) 365-5510,,Hector C. Lora,,6/30/2022,,,mayor@cityofpassaicnj.gov,,
1608,Paterson City,Passaic,"125 Ellison Street, 1st Floor",,Paterson,NJ,07505-1414,(973) 321-1235,(973) 321-1224,Andre Sayegh,,6/30/2022,,,mayorsayegh@patersonnj.gov,,
0814,Paulsboro Borough,Gloucester,1211 Delaware Street,,Paulsboro,NJ,08066,(856) 423-1500,(856) 423-9117,Gary C Stevenson,,12/31/2023,,,gstevenson@paulsboronj.org,,
1815,Peapack & Gladstone Borough,Somerset,One School Street,,Peapack,NJ,07977,(908) 234-2252,,Gregory J. Skinner,,12/31/2022,,,gskinner@peapackgladstone.org,,
0328,Pemberton Borough,Burlington,50 Egbert Street,Post Office Box 261,Pemberton,NJ,08068-0261,(609) 894-8222,,David A. Patriarca,,12/31/2022,,,dpatriarca@pembertontwp.com,,
0329,Pemberton Township,Burlington,500 Pemberton-Browns Mills Rd.,,Pemberton,NJ,08068-1539,(609) 894-3304,(609) 894-2703,David A. Patriarca,,12/31/2022,,,dpatriarca@pemberton-twp.com,,
1108,Pennington Borough,Mercer,30 North Main Street,,Pennington,NJ,08534,(609) 737-0276,,Joseph Lawver,,12/31/2023,,, jlawver@penningtonboro.org,,
1708,Penns Grove Borough,Salem,Post Office Box 527,,Penns Grove,NJ,08069,(856) 299-0098,(856) 299-0975,Ladaena D. Thomas,,12/31/2023,,,mayorthomas@pennsgrove-nj.org,,2011
0427,Pennsauken Township,Camden,5605 North Crescent Boulevard,,Pennsauken,NJ,08110,(856) 665-1000,,Jessica Raseh,,12/31/2022,,,jraseh@twp.pennsauken.nj.us,,2017
1709,Pennsville Township,Salem,90 North Broadway,,Pennsville,NJ,08070-1750,(856) 678-3089,,Robert E. McDade,,12/31/2022,,,rbrt_mcdade@yahoo.com,,
1431,Pequannock Township,Morris,530 Newark Pompton Turnpike,,Pompton Plains,NJ,07444-1744,(973) 835-5700,,Kyle Russell,,12/31/2022,,,krussell@peqtwp.org,,
1216,Perth Amboy City,Middlesex,City Hall,260 High Street,Perth Amboy,NJ,08861,(732) 826-0290,(732) 826-4205,Helmin J. Caba,,12/31/2024,,,hcaba@perthamboynj.org,,
2119,Phillipsburg Town,Warren,675 Corliss Avenue,,Phillipsburg,NJ,08865-1698,(908) 454-5500,,Todd M. Tersigni,,12/31/2024,,,ttersigni@phillipsburgnj.org,Facebook: Stephen Ellis Mayor,
1710,Pilesgrove Township,Salem,1180 Route 40,,Pilesgrove,NJ,08098,(856) 769-3222,(856) 769-5490,Kevin Eachus,,12/31/2022,,,keachus@PilesgroveNJ.org,,
1523,Pine Beach Borough,Ocean,499 Pennsylvania Avenue,Post Office Box 425,Pine Beach,NJ,08741,(732) 349-6425,,Lawrence W. Cuneo,,12/31/2023,,,pinebeachmayor@comcast.net,,
0428,Pine Hill Borough,Camden,45 West 7th Avenue,,Pine Hill,NJ,08021-6399,(856) 783-7400,,Christopher Green,,12/31/2023,,,cgreen@pinehillboronj.com,,
0429,Pine Valley Borough,Camden,One Club Road,,Pine Valley,NJ,08021,(856) 783-7078,,Michael B. Kennedy,,5/15/2022,,4,damadio.pinevalleynj@gmail.com,,
1217,Piscataway Township,Middlesex,455 Hoes Lane,,Piscataway,NJ,08854,(732) 562-2300,,Brian C. Wahler,,12/31/2024,,,bwahler@piscatawaynj.org,,
0815,Pitman Borough,Gloucester,110 South Broadway,,Pitman,NJ,08071,(856) 589-3522,,Michael Razze,,12/31/2023,,,Michael.Razze@pitman.org,,2019
1711,Pittsgrove Township,Salem,989 Centerton Road,,Pittsgrove,NJ,08318-3031,(856) 358-2300,(856) 358-3055,Fiore J. Copare ,,12/31/2023,,,fcopare@pittsgrovetownship.com,,
2012,Plainfield City,Union,515 Watchung Avenue,,Plainfield,NJ,07060-1720,(908) 753-3310,,Adrian O. Mapp,,12/31/2025,,,mayormapp@plainfieldnj.gov,,
1218,Plainsboro Township,Middlesex,641 Plainsboro Road,,Plainsboro,NJ,08536,(609) 799-0909,(609) 799-7076,Peter A. Cantu,,12/31/2022,,,pcantu@plainsboronj.com,,
0119,Pleasantville City,Atlantic,18 North 1st Street,,Pleasantville,NJ,08232-2604,(609) 484-3600,,Judy M. Ward,,12/31/2024,,,mayorward@pleasantvillenj.us,,
1524,Plumsted Township,Ocean,121 Evergreen Road,,New Egypt,NJ,08533-1207,(609) 758-2241,(609) 758-0123,Robert W. Bowen,,12/31/2022,,,rbowen@plumsted.org,,
2120,Pohatcong Township,Warren,50 Municipal Drive,,Phillipsburg,NJ,08865,(908) 454-6121,(908) 454-5911,David S. Slack,,12/31/2023,,,slackfarmsnj@yahoo.com,,
1526,Point Pleasant Beach Borough,Ocean,416 New Jersey Avenue,,Point Pleasant Beach,NJ,08742,(732) 892-4466,,Paul M. Kanitra,,12/31/2023,,,pkanitra@pointbeach.org,,
1525,Point Pleasant Borough,Ocean,2233 Bridge Avenue,Post Office Box 25,Point Pleasant,NJ,08742-4998,(732) 892-3434,,Robert A Sabosik,,12/31/2022,,,Mayorsabosik@ptboro.com,,
1609,Pompton Lakes Borough,Passaic,25 Lenox Avenue,,Pompton Lakes,NJ,07442-1729,(973) 835-0143,(973) 839-8132,Michael Serra,,12/31/2023,,,mserra@pomptonlakes-nj.gov,,
0120,Port Republic City,Atlantic,143 Main Street,,Port Republic,NJ,08241,(609) 652-1501,,Gary Giberson,,12/31/2025,,,mayor@portrepublicnj.org,,
1114,Princeton,Mercer,400 Witherspoon Street,,Princeton,NJ,08540-3400,(609) 924-5176,,Mark Freda,,12/31/2024,,,mfreda@princetonnj.gov,,
1610,Prospect Park Borough,Passaic,106 Brown Avenue,,Prospect Park,NJ,07508-2041,(973) 790-7902,,Mohamed T. Khairullah,,12/31/2022,,,mtaher@prodigy.net,,
1712,Quinton Township,Salem,885 Quinton Road,Post Office Box 65,Quinton,NJ,08072-0065,(856) 935-2325,,Marjorie Sperry,,12/31/2022,,,msperry@quintonnj.com,,
2013,Rahway City,Union,One City Hall Plaza,,Rahway,NJ,07065-5022,(732) 827-2000,,Raymond A. Giacobbe,,12/31/2022,,,mayor@cityofrahway.com,,
0248,Ramsey Borough,Bergen,33 North Central Avenue,,Ramsey,NJ,07446-1807,(201) 825-3400,,Deirdre A. Dillon,,12/31/2022,,,ddillon@ramseynj.com,,
1432,Randolph Township,Morris,502 Millbrook Avenue,,Randolph,NJ,07869,(973) 989-7100,,Mary Potter,,12/31/2022,,,mpotter@randolphnj.org,,
1816,Raritan Borough,Somerset,22 First Street,,Raritan,NJ,08869-1809,(908) 231-1300,(908) 231-0810,Zachary Bray,,12/31/2023,,,zbray@raritan-nj.org,,
1021,Raritan Township,Hunterdon,One Municipal Drive,,Flemington,NJ,08822,(908) 806-6100,,Scott MacDade,,12/31/2022,,,scott.Macdade@raritantwpnj.gov,,
1022,Readington Township,Hunterdon,509 Route 523,,Whitehouse Station,NJ,08889,(908) 534-4051,,Juergen Huelsebusch,,12/31/2024,,,jhuelsebusch@readingtontwp-nj.org,,
1339,Red Bank Borough,Monmouth,90 Monmouth Street,,Red Bank,NJ,07701,(732) 530-2750,,Pasquale Menna,,12/31/2022,,,pmenna@redbanknj.org,,
0249,Ridgefield Borough,Bergen,604 Broad Avenue,,Ridgefield,NJ,07657,(201) 943-5215,(201) 943-1112,John H. Anlian,,12/31/2024,,,janlian@ridgefieldpark.org,,
0250,Ridgefield Park Village,Bergen,234 Main Street,,Ridgefield Park,NJ,07660-2500,(201) 641-4950,,John H. Anlian,,5/10/2024,Non Partisan,,togrady@ridgefieldpark.org,,
0251,Ridgewood Village,Bergen,131 North Maple Avenue,,Ridgewood,NJ,07450-3236,(201) 670-5500,(201) 670-7305,Ramopn Hache,,6/30/2022,,,rhache@ridgewoodnj.net,,
1611,Ringwood Borough,Passaic,60 Margaret King Avenue,,Ringwood,NJ,07456-1703,(973) 475-7100,(973) 962-1594,James Martocci,,12/31/2022,,,mayor@ringwoodnj.net,,
0252,River Edge Borough,Bergen,705 Kinderkamack Road,,River Edge,NJ,07661,(201) 599-6300,(201) 599-0997,Thomas R. Papaleo,,12/31/2023,,,tpapaleo@riveredgenj.org,,
0253,River Vale Township,Bergen,406 Rivervale Road,,River Vale,NJ,07675,(201) 664-2346,,Glen J. Jasonowski,,12/31/2022,,,gjasionowski@rivervalenj.org,,
1433,Riverdale Borough,Morris,91 Newark Pompton Turnpike,Post Office Box 6,Riverdale,NJ,07457,(973) 835-4060,,Paul M. Carelli,,12/31/2023,,,pcarelli@riverdalenj.gov,,
0330,Riverside Township,Burlington,237 S. Pavilion Avenue,Post Office Box 188,Riverside,NJ,08075,(856) 461-1460,(856) 461-5878,Corey Kimble,,12/31/2022,,,ckimble@riversidetwp.org,,
0331,Riverton Borough,Burlington,505A Howard Street,,Riverton,NJ,08077,(856) 829-0120,,Suzanne Cairns-Wells,,12/31/2023,,,scairnswells@riverton-nj.com,,
1112,Robbinsville Township,Mercer,2298 Route 33,,Robbinsville,NJ,08691,(609) 259-3600,609-259-3645,David Fried,,12/31/2025,,,mayor@robbinsville.net,,
0254,Rochelle Park Township,Bergen,151 West Passaic Street,,Rochelle Park,NJ,07662-3105,(201) 587-7730,,Perrin Mosca ,,12/31/2022,,,pmosca@rochelleparknj.gov,,
1434,Rockaway Borough,Morris,One East Main Street,,Rockaway,NJ,07866,(973) 627-2000,,Thomas Mulligan,,12/31/2023,,, mayormulligan@rockawayborough.org,,
1435,Rockaway Township,Morris,65 Mount Hope Road,,Rockaway,NJ,07866,(973) 983-2800,,Joe Jackson,,12/31/2023,,,jjackson@rockawaytownship.org,,
0255,Rockleigh Borough,Bergen,26 Rockleigh Road,,Rockleigh,NJ,07647-2706,(201) 768-4217,,Robert R. Schaffer,,12/31/2022,,,clerk@rockleighnj.org,,
1817,Rocky Hill Borough,Somerset,Post Office Box 188,,Rocky Hill,NJ,08553,(609) 924-4062,,Robert Uhrik,,12/31/2022,,,ruhrik@rockyhill-nj.gov,,
1340,Roosevelt Borough,Monmouth,Post Office Box 128,,Roosevelt,NJ,08555,(609) 448-0539,,Peggy Malkin,,12/31/2023,,, mayor@rooseveltnj.us,,
0718,Roseland Borough,Essex,Roseland Borough Hall,19 Harrison Avenue,Roseland,NJ,07068,(973) 403-6022,,James R. Spango,,12/31/2022,,,jspango@roselandnj.org ,,
2014,Roselle Borough,Union,210 Chestnut Street,,Roselle,NJ,07203-1218,(908) 245-5600,,Donald  Shaw,,12/31/2023,,, dshaw@boroughofroselle.com,,
2015,Roselle Park Borough,Union,110 East Westfield Avenue,,Roselle Park,NJ,07204,(908) 245-6180,,Joseph Signorello Iii,,12/31/2022,,,mayorsig@rosellepark.net,,
1436,Roxbury Township,Morris,1715 Route 46,,Ledgewood,NJ,07852-9726,(973) 448-2002,,Jim Rilee,,12/31/2025,,,rileej@roxburynj.us,,
1341,Rumson Borough,Monmouth,Borough Hall,80 East River Road,Rumson,NJ,07760,(732) 842-3300,,Joseph K. Hemphill,,12/31/2023,,,Mayor@rumsonnj.gov,,
0430,Runnemede Borough,Camden,24 North Black Horse Pike,,Runnemede,NJ,08078,(856) 939-5196,,Nick Kappatos,,12/31/2022,,, nkappatos@runnemedenj.org,,
0256,Rutherford Borough,Bergen,176 Park Avenue,,Rutherford,NJ,07070-2310,(201) 460-3000,,Frank Nunziato,,12/31/2023,,,fnunziato@rutherfordboronj.com,,
0257,Saddle Brook Township,Bergen,93 Market Street,,Saddle Brook,NJ,07663-4899,(201) 587-2903,,Robert D. White,,12/31/2022,,,mayorwhite@saddlebrooknj.gov,,
0258,Saddle River Borough,Bergen,100 East Allendale Road,,Saddle River,NJ,07458-3040,(201) 327-2609,,Albert J. Kurpis,,12/31/2023,,,drkurpis@saddleriver.org,,
1713,Salem City,Salem,17 New Market Street,,Salem,NJ,08079-1408,(856) 935-0373,(856) 935-4095,"Charles Washington, Jr. ",,12/31/2022,,,mayor@cityofsalemnj.gov,,
1917,Sandyston Township,Sussex,133 Route 645,,Branchville,NJ,07851,(973) 948-3520,,"George B. Harper, Jr.",,12/31/2023,,,mayor@sandystontownship.com,,
1219,Sayreville Borough,Middlesex,167 Main Street,,Sayreville,NJ,08872,(732) 390-7007,(732) 390-0509,Victoria Kilpatrick,,12/31/2023,,,mayor@sayreville.com,,
2016,Scotch Plains Township,Union,430 Park Avenue,,Scotch Plains,NJ,07076,(908) 322-6700,(908) 322-5021,Joshua Losardo,,12/31/2024,,,jlosardo@scotchplainsnj.com,,
1342,Sea Bright Borough,Monmouth,1167 Ocean Avenue,,Sea Bright,NJ,07760-2286,(732) 842-0099,(732) 741-3116,Brian P. Kelly,,12/31/2023,,,bkelly@seabrightnj.org,,
1343,Sea Girt Borough,Monmouth,321 Baltimore Blvd.,,Sea Girt,NJ,08750-2604,(732) 449-9433,,F. Ken Farrell,,12/31/2023,,,mayor@seagirtboro.com,,
0509,Sea Isle City,Cape May,4416 Landis Avenue,,Sea Isle City,NJ,08243-1831,(609) 263-4461,(609) 263-2142,Leonard C Desiderio,,6/30/2023,Mayor/Council,4 years each,mayorlen@seaislecitynj.us,,
1527,Seaside Heights Borough,Ocean,901 Boulevard,Post Office Box 38,Seaside Heights,NJ,08751-2127,(732) 793-9100,(732) 793-0319,Anthony Yaz,,12/31/2023,,,mayor@seaside-heightsnj.org,,
1528,Seaside Park Borough,Ocean,Post Office Box B,,Seaside Park,NJ,08752,(732) 793-3700,,John A. Peterson Jr. ,,12/31/2023,,,Mayorpeterson@seasideparknj.org,,
0909,Secaucus Town,Hudson,1203 Paterson Plank Road,,Secaucus,NJ,07094,(201) 330-2000,,Michael Gonnelli,,12/31/2022,,,mayor@secaucus.net,Facebook: Mike Gonnelli ,
0332,Shamong Township,Burlington,105 Willow Grove Road,,Shamong,NJ,08088,(609) 268-2377,(609) 268-2701,Timothy Gimbel,,12/31/2022,,,tgimbel@shamong.net,,
0611,Shiloh Borough,Cumberland,900 Main Street,Post Office Box 349,Shiloh,NJ,08353,(856) 455-3054,,Brad E. Campbell,,12/31/2024,,,mayor@shilohborough.com,,
1529,Ship Bottom Borough,Ocean,1621 Long Beach Boulevard,,Ship Bottom,NJ,08008,(609) 494-2171,,William Huelsenbeck,,12/31/2022,,,KWells@shipbottom.org,,
1344,Shrewsbury Borough,Monmouth,419 Sycamore Avenue,Post Office Box 7420,Shrewsbury,NJ,07702,(732) 741-4200,,Erik Anderson,,12/31/2022,,,eanderson@shrewsburyboro.com,,
1345,Shrewsbury Township,Monmouth,1979 Crawford Street,,Shrewsbury Township,NJ,07724-2964,(732) 542-0572,,Lester J. Jennings ,,12/31/2024,,,ljennings@townshipofshrewsbury.com,,
0431,Somerdale Borough,Camden,105 Kennedy Boulevard,,Somerdale,NJ,08083-1018,(856) 783-6320,(856) 783-6863,Gary J. Passanante,,12/31/2023,,,gpassanante@somerdale-nj.com,,
0121,Somers Point City,Atlantic,City Hall,One West New Jersey Avenue,Somers Point,NJ,08244,(609) 927-9088,,"John L Glasser, Jr.",,12/31/2023,,,jglasser@spgov.org,,
1818,Somerville Borough,Somerset,25 West End Avenue,,Somerville,NJ,08876,(908) 704-6983,,Victoria Kilpatrick,,12/31/2023,,,mayor@somervillenj.org,,
1220,South Amboy City,Middlesex,140 North Broadway,,South Amboy,NJ,08879-1647,(732) 525-5923,,Fred A Henry,,12/31/2022,,,mayor@southamboynj.gov ,,
1819,South Bound Brook Borough,Somerset,12 Main Street,,South Bound Brook,NJ,08880-1407,(732) 356-0258,,Caryl A. Shoffner,,12/31/2023,,,CShoffner@southboundbrook.com,,
1221,South Brunswick Township,Middlesex,540 Ridge Road,Post Office Box 190,Monmouth Junction,NJ,08852-0190,(732) 329-4000,(732) 821-2811,Charles Carley,,12/31/2022,,,Mayor@sbtnj.net; ccarley@sbtnj.net ,,
0259,South Hackensack Township,Bergen,227 Phillips Avenue,,South Hackensack,NJ,07606,(201) 440-1815,,Frank Cagas,,12/31/2024,,,fcagas@southhackensacknj.org,,2017
0816,South Harrison Township,Gloucester,Post Office Box 113,,Harrisonville,NJ,08039,(856) 769-3737,,Joseph Marino,,12/31/2022,,, jmarino@southharrison-nj.org,,
0719,South Orange Village,Essex,Village Hall,101 South Orange Avenue,South Orange,NJ,07079,(973) 378-7715,(973) 763-6396,Sheena Collum,,5/14/2023,,,scollum@southorange.org,,
1222,South Plainfield Borough,Middlesex,2480 Plainfield Avenue,,South Plainfield,NJ,07080-3531,(908) 226-7604,(908) 754-9091,Matthew P Anesh,,12/31/2022,,,manesh@southplainfieldnj.com,,
1223,South River Borough,Middlesex,48 Washington Street,,South River,NJ,08882-1247,(732) 257-1999,,John M Krenzel,,12/31/2023,,,jkrenzel@southrivernj.org,,
1530,South Toms River Borough,Ocean,144 Mill Street,,South Toms River,NJ,08757,(732) 349-0403,,Gregory Handshy,,12/31/2022,,,gregory.handshy@boroughofsouthtomsriver.com,,
0333,Southampton Township,Burlington,5 Retreat Road,,Southampton,NJ,08088-3514,(609) 859-2736,,Michael Mikulski,,12/31/2022,,,khoffman@southamptonnj.org,,
1918,Sparta Township,Sussex,65 Main Street,,Sparta,NJ,07871-1903,(973) 729-4493,(973) 729-0063,Molly Whilesmith,,12/31/2022,,,molly.whilesmith@spartanj.net,,
1224,Spotswood Borough,Middlesex,77 Summerhill Road,,Spotswood,NJ,08884,(732) 251-0700,(732) 251-1359,Jacqueline Palmer,,12/31/2024,,,jpalmer@spotswoodboro.com,,
1347,Spring Lake Borough,Monmouth,423 Warren Avenue,,Spring Lake,NJ,07762,(732) 449-0800,,Jennifer Naughton,,12/31/2023,Mayor & Council,4 & 2,jnaughton@springlakeboro.org,,2019
1348,Spring Lake Heights Borough,Monmouth,555 Brighton Avenue,,Spring Lake Heights,NJ,07762-2093,(732) 449-3500,,"Christopher M. Campion, Jr.",,12/31/2023,,,Mayor@springlakehts.com,,
0334,Springfield Township,Burlington,Post Office Box 119,,Jobstown,NJ,08041,(609) 723-2464,,Denis McDaniel,,12/31/2022,,,dmcdaniel@springfieldtownshipnj.org,,
2017,Springfield Township,Union,100 Mountain Avenue,,Springfield,NJ,07081,(973) 912-2200,(973) 912-2277,Denis Mcdaniel,,12/31/2022,,,dmcdaniel@springfieldtownshipnj.org,,
1531,Stafford Township,Ocean,260 East Bay Avenue,,Manahawkin,NJ,08050-3329,(609) 597-1000,,Gregory E. Myhre,,12/31/2024,,,GMyhre@staffordnj.gov,,
1919,Stanhope Borough,Sussex,77 Main Street,,Stanhope,NJ,07874-2626,(973) 347-0159,(973) 347-6058,Patricia Zdichocki,,12/31/2023,,,ehorak@stanhopenj.gov,,
1920,Stillwater Township,Sussex,964 Stillwater Road,,Newton,NJ,07860,(973) 383-9484,,George E. Scott,,12/31/2024,,,gscott@stillwatertwp.com,,
1023,Stockton Borough,Hunterdon,2 South Main Street,Post Office Box M,Stockton,NJ,08559-0377,(609) 397-0070,,Timothy J Nemeth,,12/31/2022,,,stocktonnemeth@yahoo.com,,
0510,Stone Harbor Borough,Cape May,9508 Second Avenue,,Stone Harbor,NJ,08247,(609) 368-5102,,Judith M. Davies-Dunhour ,,12/31/2024,,,DaviesJ@shnj.org,,
0612,Stow Creek Township,Cumberland,474 Macanippuck Road,,Bridgeton,NJ,08302,(856) 451-8822,,Dale F Cruzan Jr.,,12/31/2023,,,committemancruzan@stowcreektwp.com,,
0432,Stratford Borough,Camden,307 Union Avenue,,Stratford,NJ,08084,(856) 783-0600,,Josh Keenan,,12/31/2023,,,JoshKeenan@stratfordnj.org,,
2018,Summit City,Union,512 Springfield Avenue,,Summit,NJ,07901-2607,(908) 522-3600,(908) 273-2977,Nora G. Radest,,12/31/2023,,,nradest@cityofsummit.org,,
1532,Surf City,Ocean,813 Long Beach Boulevard,,Surf City,NJ,08008,(609) 494-3064,,Francis Hodgson,,12/31/2023,Borough,,boroughclerk@surfcitynj.org,,2019
1921,Sussex Borough,Sussex,2 Main Street,,Sussex,NJ,07461-2305,(973) 875-4831,(973) 875-6261,Edward Meyer,,12/31/2023,,4 year,emeyer@sussexboro.com,,
0817,Swedesboro Borough,Gloucester,1500 Kings Highway,,Swedesboro,NJ,08085-1286,(856) 467-0202,,Thomas W Fromm,,12/31/2023,,,tfromm@swedesboro-nj.us ,HistoricSwedesboro.com,
0335,Tabernacle Township,Burlington,163 Carranza Road,,Tabernacle,NJ,08088,(609) 268-1220,,"Samuel R. Moore, III",,12/31/2022,,,smoore@townshipoftabernacle-nj.gov,,
0433,Tavistock Borough,Camden,Post Office Box 8988,,Turnersville,NJ,08012-8988,(856) 429-0039,,Joseph DelDuca,,12/31/2024,,,tavistockboro@yahoo.com,,
0260,Teaneck Township,Bergen,818 Teaneck Road,,Teaneck,NJ,07666-4599,(201) 837-1600,(201) 837-1222,Dr. James Dunleavy,,6/30/2022,,,djdunleavy@teanecknj.gov ,Facebook.com: teanecknjgov; @TeaneckNJGov,
0261,Tenafly Borough,Bergen,100 Riveredge Road,,Tenafly,NJ,07670-2016,(201) 568-6100,,Mark Zinna,,12/31/2023,,,mzinna@tenafly.net,,
0262,Teterboro Borough,Bergen,510 Route 46 West,,Teterboro,NJ,07608,(201) 288-1200,,John P. Watt,,6/30/2022,,,krus8r@aol.com,,
1024,Tewksbury Township,Hunterdon,169 Old Turnpike Road,,Califon,NJ,07830,(908) 439-0022,,Andrea Maranca,,12/31/2022,,,amaranca@tewksburytwp.net,,
1349,Tinton Falls Borough,Monmouth,556 Tinton Avenue,,Tinton Falls,NJ,07724,(732) 542-3400,,Vito P. Perillo,,12/31/2025,,,vperillo@tintonfalls.com,,
1508,Toms River Township,Ocean,33 Washington Street,Post Office Box 728,Toms River,NJ,08754,(732) 341-1000,,"Maurice ""Mo"" B. Hill, Jr.",,12/31/2023,,,mhill@tomsrivertownship.com,,
1612,Totowa Borough,Passaic,537 Totowa Road,at Cherba Place,Totowa,NJ,07512,(973) 956-1009,,John Coiro,,12/31/2022,,,mayorcoiro@totowanj.org,,
1111,Trenton City,Mercer,319 East State Street,,Trenton,NJ,08608,(609) 989-3030,,Reed Gusciora,,6/30/2022,,,mayorsoffice@trentonnj.org,,
1533,Tuckerton Borough,Ocean,140 East Main Street,,Tuckerton,NJ,08087-2618,(609) 296-2701,,Susan R Marshall,,12/31/2022,,,mayor@tuckertonborough.com,,
1350,Union Beach Borough,Monmouth,Municipal Building,650 Poole Avenue,Union Beach,NJ,07735,(732) 264-2277,,Charles W. Cocuzza,,12/31/2023,,,charlie@unionbeachnj.gov,,
0910,Union City,Hudson,3715 Palisade Avenue,,Union City,NJ,07087,(201) 348-5731,,Brian Stack,,5/18/2022,,,mayorstack@ucnj.com,,
2019,Union Township,Union,Municipal Building,1976 Morris Avenue,Union,NJ,07083-3597,(908) 851-8500,,Manuel Figueiredo,,12/31/2022,,,mfigueiredo@uniontownship.com,,
1025,Union Township,Hunterdon,140 Perryville Road,,Hampton,NJ,08827,(908) 735-8027,,David M. DeGiralamo,,12/31/2024,,,ddegiralamo@uniontwp-hcnj.org,,
0613,Upper Deerfield Township,Cumberland,Post Office Box 5098,1325 State Highway 77,Seabrook,NJ,08302,(856) 451-3811,(856) 451-1379,James P. Crilley,,12/31/2023,,,jcrilley@upperdeerfield.com,,
1351,Upper Freehold Township,Monmouth,314 Route 539,PO Box 89                                   ,Cream Ridge,NJ,08514,(609) 758-7738,(609) 758-1183,LoriSue H. Mount,,12/31/2022,,,lmount@uftnj.com,,
1714,Upper Pittsgrove Township,Salem,431 Route 77,,Elmer,NJ,08318-2756,(856) 358-8500,,Jack Cimprich,,12/30/2022,,,uptclerk@hotmail.com,,
0263,Upper Saddle River Borough,Bergen,376 West Saddle River Road,,Upper Saddle River,NJ,07458,(201) 327-2196,(201) 934-5127,Joanne L. Minichetti,,12/31/2023,Borough,4 year,jminichetti@usrtoday.org,,
0511,Upper Township,Cape May,Post Office Box 205,,Tuckahoe,NJ,08250,(609) 628-2011,(609) 628-3092,Curtis T. Corson Jr.,,12/31/2022,,,ccorson@uppertownship.com,,
0122,Ventnor City,Atlantic,City Hall,6201 Atlantic Avenue,Ventnor,NJ,08406-2734,(609) 823-7900,,Beth Holtzman,,5/14/2024,Non Partisan,,bholtzman@ventnorcity.org,,
1922,Vernon Township,Sussex,21 Church Street,,Vernon,NJ,07462-0343,(973) 764-4055,(973) 764-4799,Howard Burrell,,12/31/2023,,,hburrell@vernontwp.com,,
0720,Verona Township,Essex,600 Bloomfield Avenue,,Verona,NJ,07044,(973) 239-3220,(973) 857-8551,Alex Roman ,,6/30/2023,,,mayor@veronanj.org,,
1437,Victory Gardens Borough,Morris,337 South Salem Street,,Dover,NJ,07801,(973) 366-5312,,"David Holeman, Jr.",,12/31/2024,,,gardensvg@optonline.net,,
0614,Vineland City,Cumberland,640 East Wood Street,Post Office Box 1508,Vineland,NJ,08362-1508,(856) 794-4000,,Anthony R. Fanucci,,12/31/2024,,,afanucci@vinelandcity.org,,
0434,Voorhees Township,Camden,620 Berlin Road,,Voorhees,NJ,08043-1493,(856) 429-7174,,Michael Mignogna,,12/31/2022,,,mmignogna@voorheesnj.com,,
0264,Waldwick Borough,Bergen,63 Franklin Turnpike,,Waldwick,NJ,07463,(201) 652-5300,(201) 652-4143,Thomas A Giordano,,12/31/2023,,4 years,tgiordano@waldwicknj.org,,
1352,Wall Township,Monmouth,2700 Allaire Road,,Wall,NJ,07719-9570,(732) 449-8444,,Kevin P. Orender,,12/31/2022,,,rlang@townshipofwall.com,,
0265,Wallington Borough,Bergen,24 Union Boulevard,,Wallington,NJ,07057,(973) 777-0318,,Melissa Dabal,,12/31/2023,,,mdabal@wallingtonnj.org,,
1923,Walpack Township,Sussex,9 Main Street,P. O. Box 94                                   ,Walpack,NJ,07881-0000,(908) 841-9576,,Victor J. Maglio,,12/31/2022,,,walpackmayor@gmail.com,,
1613,Wanaque Borough,Passaic,579 Ringwood Avenue,,Wanaque,NJ,07465,(973) 839-3000,(973) 839-4959,Daniel Mahler,,12/31/2022,,,mayor@wanaqueborough.com,,
1924,Wantage Township,Sussex,Wantage Municipal Building,888 Route 23,Wantage,NJ,07461-3327,(973) 875-7192,,Ronald Bassani,,12/31/2022,Mayor/Committee,1 yearCommittee 3 yrs,rbassani@wantagetwp-nj.org,,
1820,Warren Township,Somerset,46 Mountain Boulevard,,Warren,NJ,07059,(908) 753-8000,,Victor J. Sordillo,,12/31/2022,,,vjsordillo@warrennj.org,,
2121,Washington Borough,Warren,100 Belvidere Avenue,,Washington,NJ,07882-1417,(908) 689-3600,(908) 689-9485,David Higgins,,12/31/2024,,,dhiggins@washingtonboro-nj.org,,
2122,Washington Township,Warren,211 Route 31 North,,Washington,NJ,07882,(908) 689-7200,(908) 689-9234,Robert J. Klingel,,12/31/2022,,every year,mayor@washington-twp-warren.org,,2012
1438,Washington Township,Morris,43 Schooley's Mountain Road,,Long Valley,NJ,07853-3199,(908) 876-3315,,Matthew T. Murello,,12/31/2022,,,mmurello@wtmorris.net,,
0336,Washington Township,Burlington,1018 River Road,,Egg Harbor,NJ,08215-4707,(609) 965-3242,,Daniel James,,12/31/2022,,,djames@wtbcnj.org,,
0818,Washington Township,Gloucester,Post Office Box 1106,,Turnersville,NJ,08012-1106,(856) 589-0520,(856) 589-5419,Joann Gattinelli,,12/30/2024,,,mayorgattinelli@twp.washington.nj.us,,
0266,Washington Township,Bergen,350 Hudson Avenue,,Washington Township,NJ,07675-4731,(201) 664-4404,,Peter Calamari,,12/31/2025,,,mayor@twpofwashington.us,,
1821,Watchung Borough,Somerset,15 Mountain Boulevard,,Watchung,NJ,07069,(908) 756-0080,,Keith S. Balla,,12/31/2022,,, KBalla@watchungnj.gov,,
0435,Waterford Township,Camden,2131 Auburn Avenue,,Atco,NJ,08004,(856) 768-2300,,Andrew Wade,,12/31/2022,,,awade@waterfordtwp.org,,
1614,Wayne Township,Passaic,475 Valley Road,,Wayne,NJ,07470,(973) 694-1800,(973) 872-0586,Christopher P. Vergano,,12/31/2025,,,mayor@waynetownship.com,,
0911,Weehawken Township,Hudson,400 Park Avenue,,Weehawken,NJ,07087,(201) 319-6000,(201) 319-6112,Richard F. Turner,,6/30/2022,,,Roladahboul@tow-nj.net,,
0819,Wenonah Borough,Gloucester,One Southwest Avenue,,Wenonah,NJ,08090-1800,(856) 468-5228,,"John R Dominy, Esq.",,12/31/2022,,,jdominy@boroughofwenonah.com,,
1026,West Amwell Township,Hunterdon,150 Rocktown-Lambertville Road,,Lambertville,NJ,08530-3203,(609) 397-2054,(609) 397-8634,James Cally,,12/31/2022,,,clerk@westamwelltwp.org,,
0721,West Caldwell Township,Essex,30 Clinton Road,,West Caldwell,NJ,07006-6704,(973) 226-3621,,Joseph Tempesta Jr,,12/31/2022,,,jtempesta@westcaldwell.com,,
0512,West Cape May Borough,Cape May,732 Broadway,,West Cape May,NJ,08204-1214,(609) 884-1005,(609) 898-0888,Carol Sabo,,12/31/2022,,,"csabo@westcapemay.us	",,
0820,West Deptford Township,Gloucester,Post Office Box 89,400 Crown Point Road,Thorofare,NJ,08086-0089,(856) 845-4004,,James P. Mehaffey,,12/31/2022,,,jmehaffey@westdeptford.com,,
1353,West Long Branch Borough,Monmouth,965 Broadway,,West Long Branch,NJ,07764-1504,(732) 229-1756,(732) 571-9185,Janet W Tucci,,12/31/2022,,, jtucci@westlongbranch.org,,
1615,West Milford Township,Passaic,1480 Union Valley Road,,West Milford,NJ,07480-1338,(973) 728-7000,(973) 728-2884,Michele Dale,,12/31/2023,,,Dale@WestMilford.org,,
0912,West New York Town,Hudson,428  60th Street,,West New York,NJ,07093-2222,(201) 295-5200,,Gabriel Rodriguez,,5/21/2023,,,grodriguez@westnewyorknj.org,,
0722,West Orange Township,Essex,Municipal Building,66 Main Street,West Orange,NJ,07052-5054,(973) 325-4100,(973) 669-0238,Robert Parisi,,12/31/2022,,,RParisi@westorange.org,,
0513,West Wildwood Borough,Cape May,701 West Glenwood Avenue,,West Wildwood,NJ,08260-2221,(609) 522-4845,,Matthew J. Ksiazek,,12/31/2024,,,cfox@westwildwood.org,,
1113,West Windsor Township,Mercer,271 Clarksville Road,Post Office Box 38,West Windsor,NJ,08550-5333,(609) 799-2400,,Hemant Marathe,,12/31/2025,,,hmarathe@westwindsortwp.com,,
0337,Westampton Township,Burlington,710 Rancocas Road,,Westampton,NJ,08060-5642,(609) 267-1891,,Sandy Henley,,12/31/2022,,,shenley@westampton.com,,
2020,Westfield Township,Union,425 East Broad Street,,Westfield,NJ,07090,(908) 789-4040,,Michelle Brindle,,12/31/2025,,,mayorbrindle@westfieldnj.gov,"Instagram @MayorBrindle; Twitter @swbrindle
",
0821,Westville Borough,Gloucester,165 Broadway,,Westville,NJ,08093-1148,(856) 456-0030,(856) 742-8190,Russell W Welsh Jr,,12/31/2022,,,Rwelsh@westville-nj.com,,
0267,Westwood Borough,Bergen,101 Washington Avenue,,Westwood,NJ,07675,(201) 664-7100,,Ray Arroyo,,12/31/2023,,,rarroyo@westwoodnj.gov,,
0123,Weymouth Township,Atlantic,45 South Jersey Avenue,,Dorothy,NJ,08317,(609) 476-2633,(609) 476-4466,Kenneth R. Haeser,,12/31/2022,,,mayor@weymouthnj.org,,
1439,Wharton Borough,Morris,10 Robert Street,,Wharton,NJ,07885,(973) 361-8444,,William J Chegwidden,,12/31/2022,,,wchegwidden@whartonnj.com,,
2123,White Township,Warren,555 County Route 519,,Belvidere,NJ,07823,(908) 475-2093,,Jeff Herb,,12/31/2022,,3,jdherb@comcast.net,,
0514,Wildwood City,Cape May,4400 New Jersey Avenue,,Wildwood,NJ,08260-1729,(609) 522-2444,(609) 523-9200,Peter Byron,,12/31/2023,,,smaxwell@wildwoodnj.org,,
0515,Wildwood Crest Borough,Cape May,6101 Pacific Avenue,,Wildwood Crest,NJ,08260,(609) 522-5176,(609) 522-6692,Donald Cabrera,,12/31/2025,,,dcabrera@wildwoodcrest.org,,
0338,Willingboro Township,Burlington,1 Salem Road,Municipal Complex,Willingboro,NJ,08046,(609) 877-2200,,Tiffani Worthy,,12/31/2023,,,tworthy@willingboronj.gov,,
2021,Winfield Township,Union,12 Gulfstream Avenue,,Winfield,NJ,07036-6608,(908) 925-3850,,Robert F. Reilly,,12/31/2022,,,townoffice@winfield-nj.org,,
0436,Winslow Township,Camden,125 South Route 73,,Braddock,NJ,08037-9422,(609) 567-0700,,Barry M. Wright,,12/31/2023,,,MayorWright@winslowtownship.com,,
0516,Woodbine Borough,Cape May,501 Washington Avenue,,Woodbine,NJ,08270,(609) 861-2153,(609) 861-2529,William Pikolycky,,12/31/2022,,,mayor@boroughofwoodbine.net,,
1225,Woodbridge Township,Middlesex,One Main Street,,Woodbridge,NJ,07095,(732) 634-4500,(732) 602-6016,John Mccormac,,12/31/2023,,,john.mccormac@twp.woodbridge.nj.us,,
0822,Woodbury City,Gloucester,33 Delaware Street,Post Office Box 180,Woodbury,NJ,08096,(856) 845-1300,(856) 845-1309,Peg Sickel,,12/31/2022,,,psickel@woodbury.nj.us,,
0823,Woodbury Heights Borough,Gloucester,500 Elm Avenue,,Woodbury Heights,NJ,08097,(856) 848-2832,,Robbie J. Conley,,12/31/2022,,,rconley@bwhnj.com,,
0268,Woodcliff Lake Borough,Bergen,188 Pascack Road,,Woodcliff Lake,NJ,07677-7921,(201) 391-4977,(201) 391-8830,Carlos Rendo,,12/31/2023,,4 year,mayorrendo@wclnj.com,,
1616,Woodland Park Borough,Passaic,5 Brophy Lane,,Woodland Park,NJ,07424-2945,(973) 345-8100,,Keith Kazmark,,12/31/2024,,,kkazmark@wpnj.us,,
0339,Woodland Township,Burlington,3943 Route 563,Post Office Box 388,Chatsworth,NJ,08019,(609) 726-1700,,William Degroff,,12/31/2023,,,wdegroff@woodlandtownship.org,,
0437,Woodlynne Borough,Camden,200 Cooper Avenue,,Woodlynne,NJ,08107-2108,(856) 962-8300,,Joseph Chukwueke ,,12/31/2023,,,woodlynnemayor@comcast.net,,2011
0269,Wood-Ridge Borough,Bergen,85 Humboldt Street,,Wood-Ridge,NJ,07075-2344,(201) 939-0202,,Paul A Sarlo,,12/31/2023,,,psarlo@njwoodridge.org,,
1715,Woodstown Borough,Salem,Post Office Box 286,,Woodstown,NJ,08098,(856) 769-2200,,Donald Dietrich,,12/31/2023,,,Don.dietrich@comcast.net,,
0824,Woolwich Township,Gloucester,120 Village Green Drive,,Woolwich Township,NJ,08085-3180,(856) 467-2666,,Craig Frederick,,12/31/2024,,,cfrederick@woolwichtwp.org,,
0340,Wrightstown Borough,Burlington,21 Saylors Pond Road,,Wrightstown,NJ,08562,(609) 723-4450,(609) 723-7137,Donald Cottrell,,12/31/2022,,,mayor@wrightstownborough.com,,
0270,Wyckoff Township,Bergen,Memorial Town Hall,Scott Plaza,Wyckoff,NJ,07481,(201) 891-7000,,Rudolf E. Boonstra,,12/31/2022,,,rboonstra@wyckoff-nj.com,,

